,Unnamed: 0,Company_Name,Email_Address,Phone_Number,Address
0,0,Apparel Motorcycles,,0818-0408-0655,"Jl Amalia Rubini - Pataruman Rt 02/11, Cianjur WEST JAVA, 43213"
1,1,Motorcycle,lestari@.......com,0811-5423-004,
2,2,spare part ac,tokonavita@.......com,0858-8269-5540,"jalan bintro raya no 100, Jakarta Jakarta, 12150"
3,3,CV.CENTRAL PARTS,centralparts_ichiban@.......com,021 70759717,"MALL MGK KEMAYORAN LANTAI GF Blok C11 No.3, Jakarta Jakarta, 10610"
4,4,ABA CAR PARTS,sparepart.isuzu@.......com,021 6543604,"Pasar mobil kemayoran S 103 F, Jakarta Pusat, Jakarta Jakarta, 10160"
5,5,"Prima Jaya Spare Parts, Pemasangan & Service",,061 4159525,"Jl Irian Brt 93/109, Medan"
6,6,DUNIAPART - Genset & Spare Part,duniapart@.......com,021 80875854,"jakarta, Jakarta Jakarta, 13650"
7,7,alat survey gps service spare part,fauzimauludi@.......co.id,0812-3103-5033,"Gunung Sari Indah Blok R/19 Surabaya, surabaya East Java, 60111"
8,8,Solid Spare Part,solidsparepart@.......com,031 5467936,"Today Hits,, 17125"
9,9,Spare Part Traktor,united.diesel@.......com,0622 16250168,"Jl Taman Sari Raya 56SH,, 11150"
10,10,Spare Parts Toyota Murah,sparepartstoyotamurah@.......com,021 4207472,
11,11,"MESIN (spare part, cutting tool) - Tunggal Jaya teknik",ivan.tools@.......com,,"jl amanah 236, binong, Bandung West Java, 40115"
12,12,Spare Part Forklift / PT. Raya Indo Fortuna,lina@.......com,0622 15843557,"Jl. Raya Pos Pengumben No.39B, DKI Jakarta Jakarta, 11630"
13,13,GoWork Coworking Space,seo@.......com,021 30006718,"Jl. M.H. Thamrin No. 10, Chubb Square 9th Floor, Kebon Melati, Jakarta Pusat Jakarta, 10230"
14,14,www.sumberbintangmas.com : Spare Parts & Accessories Mobil : Harga Grosir & Eceran,sumberbintangmas@.......com,,"MALL MGK KEMAYORAN LT.5 BLOCK E.10 NO.19 TLP:02144672366 081281822064 JAKARTA PUSAT, Jakarta Jakarta, 10000"
15,15,Greenhouse Coworking Space,hello@.......id,021 30436000,"Multivision Tower 25th Floor, Jl. Kuningan Mulia Lot 9B, RT.6/RW.1, Menteng Atas, RT.6/RW.1, Menteng, Jakarta Jakarta, 12980"
16,16,Bike Part Store,storebikepart@.......com,0853-5959-1354,"Jl Teuku Umar No.18 Tanjung Karang 3. Bandar Lampung 35111, Bandarlampung Lampung, 35111"
17,17,Motorcycle Insurence,,0888-6456-338,"Jl Pemuda 39, Jepara Central Java, 59412"
18,18,Sinar Safari Auto Parts,sinarsafari_autoparts@.......co.id,021 65865721,"Pasar Mobil Kemayoran Blok E No. 48-49, Kemayoran Jakarta, 10610"
19,19,Karunia Spare Part And Service,,,
20,20,Kerudung Paris,citra_tex@.......com,0817-388-998,"Malang East Java, 65117"
21,21,"Sino Cement Spare Parts Supplier Co., Ltd",sinospare@.......com,0865-9265-30228,"Unit 1204-1, No.189, Binhu Yili, Xiamen Area of Pilot Free Trade Zone (Fujian), China, Jakarta, Jakarta 10220"
22,22,Spare Division,sales@.......com,0857-9436-0258,
23,23,Bali Motorcycle Tour,balimotorcycletour@.......com,0815-2908-1222,
24,24,spareparts honda motorcycle,pujip@.......ac.id,0816-1491-830,"Jl. Raya Centex gg. Firman No. 73, East Jakarta Jakarta, 13740"
25,25,"Ningbo Yuchen Auto Parts Co., Ltd.",qqb@.......com,,"No.15, Huixin Road, Daqi Street, Beilun, Ningbo, China, Selong, Central Java 1234"
26,26,A1 Hitech Metal Parts,sales@.......in,,"Jl. Guntur Rt. 003, Kec. Pesanggrahan Jakarta, 12320"
27,27,Kingly Metal Parts Manufacturer,,,"Shajing, Bandung Banten, 10250"
28,28,EV Hive Coworking Space,info@.......co,021 73910333,"The Maja 1st floor Jalan Kyai Maja No. 39 South Jakarta, 12120 Indonesia, Jakarta Jakarta, 12120"
29,29,A Brass Turned Parts Components,sales@.......com,022 43449300,"Denpasar Bengkulu, 65478"
30,30,Mitsuba Indonesia Produk Utama Kami Berupa Spare Parts,pensilwarna1@.......com,0856-5905-5326,
31,31,PART BIKES (www.part-bikes.com),customerpartbikes@.......com,0823-6053-5678,"Jl. Walikota Mustajab No.4 Surabaya (East Java) Indonesia 60141, Surabaya East Java, 60141"
32,32,KTJ MOTOSHOP,ktjmotoshop@.......com,021 5522911,"JL. DAAN MOGOT RAYA NO.9A TANAH TINGGI, Jakarta Jakarta, 10740"
33,33,CV. Garpu Mandiri,garpumandiri@.......com,0778 432079,"Jl.Imam Bonjol Komp Batama No.08 Batam Indonesia., Batam Riau, 29436"
34,34,Surya Diesel Turbo Indonesia Fuel Injection & Turbocharger,darmadi_ang@.......com.sg,061 4146714,"Jl. Irian Barat No. 65/81 Medan Indonesia, Medan North Sumatra, 20231"
35,35,PT. DOBITEC GLOBAL,pt.dobitec_global@.......com,,"BRANCH. SRENGSENG. BAMBU 1 NO 50e. KEMBANGAN. JAKARTA. INDONESIA, JAKARTA BARAT Jakarta, 11630"
36,36,Kc Parts,info@.......net,021 54378888,
37,37,turbine parts,sales.dwitama@.......com,0622 27835518,"CV. DWITAMA MULYA PERSADA, Bandung West Java, 40615"
38,38,Grease-parts,sales@.......com,021 96482259,"jl.panjang arteri kedoya no.9A, Jakarta barat Jakarta, 11520"
39,39,MANDIRI PERKASA,cv.mandiri.perkasa@.......com,0857-3080-2277,"Kupang segunting V/2, Surabaya East Java, 60264"
40,40,PT. Indotyre Mandiri Sentosa,,216457106,"Ruko Marinatama, blok G 12 - 12A, Jl Gunung Sahari Raya 2 RT01/RW13, Pademangan., Jakarta Utara, 14420"
41,41,Permaisuri,,217211239,"Jl. Mahakam No.5, RT01/RW06, Kebayoran Baru, Jakarta Selatan, DKI Jakarta, Jakarta Selatan 12130"
42,42,BIG BAN,,81380766212,"Jl. Soekarno Hatta KM.1, No.2, Gunung Samarinda Kecamatan Balikpapan Utara, Kota Balikpapan, Kalimantan Timur 76124"
43,43,Paris Antiques Gallery,info@.......com,021 31900930,
44,44,Kerudung Jilbab Paris,citra_tex@.......com,,"Malang East Java, 65117"
45,45,Metal Hardware Parts Factory,,061 675837,"Metal Parts Park, Jambi Banten, 361004"
46,46,New Motorcycle Invoice Prices,message@.......com,0818-0216-1927,
47,47,"KAMPUNG BIKERS ""MOTORCYCLE ACCESORIES""",kampungbikers@.......com,0838-8818-434,"Jlswadharma Vi No5 Rt00208 Kompbni Ulujami Pesanggrahan Jakarta Selatan 12250, Jakarta Jakarta, 12250"
48,48,Alatmobil,,021 6414525,"Komp Rukan Permata Ancol Blok B9,, 14420"
49,49,STAR CELLULAR PERBAUNGAN,starcellularperbaungan@.......com,,"JL.KABUPATEN NO.30 PERBAUNGAN - SERDANG BEDAGAI, PERBAUNGAN North Sumatra, 20986"
50,50,SURYA MAS MANDIRI,suryamasmotor@.......co.id,021 53679205,"Kemandoran, jakarta Jakarta, 11110"
51,51,PD.GUNUNG MAS,senali_usli@.......co.id,,"Jl. Taman Sari Raya No. 88, Jakarta Barat Jakarta, 11150"
52,52,Leasing Office space,salamrahardjo@.......com,021 6922482,"tata building Jl,Roa malaka utara no.5-6 jakarta barat 11230, Jakarta Jakarta, 11230"
53,53,Boss Noss Motorcycle Carb Nitrous Oxide System Kit,ef090661@.......net.id,0778 459407,Riau
54,54,"penjualan alat-alat berat, service dan spare part",slamet@.......com,0812-9937-191,"jl. cakung cilincing raya 203, cakung jakarta timur, Jakarta Jakarta, 13910"
55,55,Tldsparepart,tldsparepart@.......com,0812-8613-4308,"Mulyosari Prima Utara I / MT-42,, 60112"
56,56,Kaliperkit,davinoctavianus6564@.......com,0343 4343433,"jakarta Jakarta, 11530"
57,57,SINAR CAHAYA MANDIRI.PD,taiton.neil@.......com,021 6257387,"Taman sari raya komp,mega spare parts blok D16 no.1 Jakarta, Jakarta Jakarta, 11150"
58,58,oko_company,okocompany@.......com,0856-4969-8293,"perum pondok rindang c.157-pakisaji-malang, Malang East Java, 65146"
59,59,PACIFIC TRACTOR INDONESIA,pacific.tractor@.......com,021 42882103,"BUNGUR BESAR 17. BLOK 7 No. B5, JAKARTA PUSAT Jakarta, 10610"
60,60,Restu Filter,theresialeli@.......com,,"Jl.Candi lontar tengah I blok 43c no 2, Surabaya East Java, 60216"
61,61,"Guang Zhou Titu Auto Parts Co.,Ltd",,0622 06305,"3A04 Room,C3 Building,, Guang Zhou Bali, 51050"
62,62,Kapuas Space,,0813-5244-2659,
63,63,Space Tribe,,0623 61731735,
64,64,Medan Space,,0812-3052-6789,
65,65,Space Gass,ind@.......com,0811-102-210,"Jalan Jl Garuda No4, Jakarta Jakarta, 12330"
66,66,Bali Space,balispacemagz@.......com,0623 61248343,
67,67,Space Toon,kritik-saran@.......co.id,061 4143145,"Jalan HMSaid No2, N (d/h Jln Durian) Medan North Sumatra, 20235"
68,68,Suare Elektonik,sindrawatiningsih@.......com,031 72575932,"Taman Siwalan Indah Blok D26 Menganti Gresik, Gresik East Java, 61174"
69,69,sparx advertising,sparx_10@.......com,021 83245050,"jl. raya alternatif cibubur no 8a. depan kota wisata, bekasi East Java, 17433"
70,70,ems spares,emsspares@.......com,0627 78460503,"block c-3 no:4, batam Riau Islands, 29342"
71,71,Mika Spart,mikaspart@.......com,,"Jl.A6 Blok A14 No.6 Teluk Gong, Jakarta Jakarta, 10150"
72,72,PT. Blessindo Prima Sarana,bps_cs1@.......com,021 6248731,"Jl. Taman Sari Raya, Jakarta Jakarta, 11150"
73,73,Q-BIC Space - Interior Consultant & Contractor,info_qbicspace@.......com,0623 17450705,"Ruko Taman Internasional A-21, Citraland, Surabaya East Java, 60217"
74,74,Xbox Parts 360,frestale@.......com,0856-4373-9583,"Jl DR Suparno Perum Bumi Arca Indah Blok 14/ 4b,, 52371"
75,75,Direct Turbine Parts,info@.......com,021 65317808,"Ji Danau Cincin Utara Blok E/10-B, Jakarta Utara Jakarta, 14350"
76,76,Vw Parts Indonesia,info@.......com,0628 18164888,"Jalan Rawamangun Muka Selatan 13,, 13220"
77,77,Parts Sentra Indomandiri,info@.......com,0542 7204404,
78,78,Power Parts Diesel,powerpartsdiesel@.......com,021 62303000,"Jl Karang Anyar Raya Blok A10 No 2, Jakarta Pusat Jakarta, 10740"
79,79,Eastern Refrigeration Parts,eastern_refparts@.......com,031 5345362,"JL. KEDUNGDORO NO. 116, Surabaya East Java, 60251"
80,80,TRAKINDO PERKASA PARTS,trakindoparts@.......com,021 83707606,"MENARA IMPERIUM, JAKARTA SELATAN Jakarta, 12980"
81,81,PT. UNGGUL JAYA SAKTI,unggul-bpn@.......net.id,0542 7204270,"Komp. Balikpapan Baru Sentra Eropa 3 blok AC 5 no.7, Balikpapan East Kalimantan, 76114"
82,82,Onderdil Alat Berat,,021 91177318,
83,83,Gorokompie,,0812-6018-033,
84,84,Agansa,info@.......com,0622 26070718,"sentra tropodo blok c-32, surabaya, 61256"
85,85,pelita notebook,hamdani77@.......com,0813-5555-4945,"jl.pelita raya no.34, Makassar South Sulawesi, 90144"
86,86,SINDORO MOTOR,sindoro_motor@.......com,021 93684338,"JL.LINGKAR LUAR, WISMA ASRI, BEKASI UTARA., BEKASI East Java, 12712"
87,87,PT. Bekasi Berkah Abadi,bekasi_berkah_abadi@.......co.id,021 8811340,"Jl. P. Diponegoro KM38 no. 5A, Bekasi West Java, 17510"
88,88,PT.KOBEXINDO PRIMA ABADI,kobexindoprimaabadi@.......co.id,,"JL.GARUDA NO.109, Jakarta Jakarta, 10610"
89,89,sinar toko tiga,nyo_c@.......com,021 98223756,"jalan toko tiga 45, Jakarta barat Jakarta, 11230"
90,90,Bintang Nusantara Jaya,stars_elevator@.......co.id,,"JaCC Blok F2 No 6, Jakarta Jakarta, 12330"
91,91,Cv.Sumber Abadi Teknik,sumberabaditeknik.sby@.......com,0812-1604-0363,"Kupang krajan tengah 53b, Surabaya East Java, 60253"
92,92,Realita Utama Carbon,rcb.bdg999@.......com,022 70517234,"Jl. Singkur Mulya No.33B Pasantren VI - Cimahi Utara - CIMAHI - JABAR, Cimahi West Java, 40715"
93,93,Best Motorcycle Ride Tips & Guide,,0623 41485397,"Jl Pudak No 8, Malang EAST JAVA, 65141"
94,94,Sakura Central Solution,eddy@.......com,021 7190253,"jalan bangka raya 110, Jakarta Jakarta, 12720"
95,95,Astra Motor,hso.honda@.......com,021 65310250,"Jl Gaya Motor Raya No 8 Sunter II, Jakarta Jakarta, 14330"
96,96,"Sutan Mudo Sukses Mandiri, PT",pt.sutanmudo@.......com,0264 8221200,"Jln. Raya Ipik Gandamanah No. 337, Purwakarta West Java, 41118"
97,97,Malindo,cs@.......com,0622 16125668,"Jl Lintang Raya Blok F No1,, 16810"
98,98,Olc888,,021 62302700,
99,99,Citralindo,,021 6256720,"Jl Taman Sari Raya No 90F, Jakarta Barat Jakarta, 11150"
100,100,lampuprojectorku.com,info@.......com,021 99773020,"PGC Lt.3A No.633 Cililitan, Jakarta Timur Jakarta, 13640"
101,101,"Atak Otomotif Indometal, Pt",,031 8541872,"Jl. Ngingas Selatan 21 Waru, Sidoarjo Jawa Timur, 61256"
102,102,KARET CONVEYOR JAKARTA,mulyajayaperkasa@.......com,0821-3642-9948,"Jl.Letjen Suprapto No.7A, Jakarta Pusat Jakarta, 10660"
103,103,wahyu oil,wahyu_oil007@.......com,021 96212272,"jl. h.taiman no.12, jakarta timur, jakarta timur Jakarta, 13760"
104,104,PT. Duta Cendana Adimandiri,office@.......co.id,0251 8241123,"Jl. Raya Ciawi Km.8, Bogor West Java, 16720"
105,105,ZONE COOL TEHNIK,camto.zonecool1@.......com,021 70366775,"JL.CEGER RAYA NO34,JURANG MANGU, Tangerang Banten, 15221"
106,106,PT. Wahanaartha Ritelindo,wah_bal@.......com,021 5950913,"Jl. Raya Serang KM. 24 Balaraja - Tangerang, Kab. Tangerang Banten, 15000"
107,107,Paris Motif,,0821-2340-0045,
108,108,Paris Toko,,021 3923955,"Jl Srikaya 2, Jakarta"
109,109,Paris Interior,,021 7432430,"Jl Siliwangi Bl Sh 21/6, Jakarta"
110,110,Paris Foto,,061 8213178,"Jl Letjen Jamin Ginting 468/92, Medan"
111,111,In Paris,,031 7311661,"Jl Darmo Baru Brt Vii/24, Surabaya"
112,112,Idf Paris,admin@.......com,0812-8651-2295,"JL BANK RAYA 2 - 15B,, 12470"
113,113,Bonjour Paris,,021 5681537,"Mal Ciputra 3, Jakarta"
114,114,Jilbab Paris,,0812-1450-3957,
115,115,Paras Estetika,parasestetika_cv@.......com,0274 6899598,"Jl Larasati 32,, 55198"
116,116,O Party,cbudiharsa@.......com,0361 7801238,
117,117,Callalily Party,callalilyparty@.......com,0274 9126277,
118,118,Party-4us,info@.......com,021 66691255,
119,119,Paris Media,,021 68908515,"Jl Sersan Iddris No23 Kelurahan Marga Jaya,, 17141"
120,120,Paris Jewellery,,021 6347073,"Gajah Mada Plaza 75, Jakarta"
121,121,Paris Toko,,021 3905410,"Jl Pegangsaan Tmr 7 Bl B/3, Jakarta"
122,122,Paris Toko,,021 7210539,"Jl Iskandarsyah 112 B, Jakarta"
123,123,Paris Toko,,061 4146615,"Jl Dr Sutomo 650, Medan"
124,124,Paris Fashion,,021 6014940,"Jl Arteri Mangga Dua Raya Pus Perdag Psr Pagi Mangga Dua Bl B/66-, Jakarta"
125,125,Paris Fashion,,061 6619436,"Jl Kom L Yos Sudarso 174, Medan"
126,126,Paris Perabot,,061 4536634,"Jl Perdana 34, Medan"
127,127,Party Balon,,,"Sentra Niaga Blok T1 No. 33, Jakarta Jakarta, 11610"
128,128,saladin party,saladinparty@.......com,021 94175574,"jl.raya condet jakarta timur, Jakarta Jakarta, 15351"
129,129,Jasmine Party,jasminepesta@.......com,,"Jakarta Jakarta, 16431"
130,130,PT. LAJU MANDIRI Pontianak,sales@.......co.id,0852-5264-6768,"Jl.Sei Raya Dalam,Gang Raya 5,Perumahan Raya Indah Blok F9, Pontianak West Kalimantan, 78391"
131,131,Artha Anugerah Traktor,info@.......com,021 62304957,"Kompleks Ruko 55 Karang Anyar Permai,, 10740"
132,132,Asuki Batam,11@.......com,0627 78430001,
133,133,Bengkel Mobil Jakarta | Beauty Power,service@.......co.id,021 7211002,"Jalan Hang Jebat 9 No.12, Jakarta Selatan Jakarta, 12000"
134,134,Sarana Sumber Sejahtera,sarana.sby@.......com,031 8474767,"Ruko Panji Makmur D-08, Surabaya East Java, 60299"
135,135,PT. Euroasiatic,wimpy.moniaga@.......com,021 56960555,"Jl. Daan Mogot Raya 44, Jakarta Jakarta, 11460"
136,136,PT.HEBRO MANDIRI,hebro.mandiri@.......com,0622 14352774,"JL.SWASEMBADA BARAT XX NO.47, JAKARTA UTARA Jakarta, 14320"
137,137,CV. PERFECT RADIATOR & COOLERS,gardy8866@.......com,0778 412798,"KOMP. BUSINESS CENTRE BLOK D NO 1, Batam Riau Islands, 29451"
138,138,eka z motor,suparto11@.......com,0877-7217-1200,"pandeglang kop bpi kaduhejo, Pandeglang Banten, 42281"
139,139,Focus e-Smart : www.tokopcgamer.com,tokopcgamer@.......com,,"Hi-Tech Mall Lt. 1 blok A No.; 11 Jl. Kusuma Bangsa 116, surabaya East Java, 14154"
140,140,Asridata,sales@.......co.id,,"Jalan Raya Cihanjuang No.119 Cihanjuang, cimahi utara West Java, 40559"
141,141,ud.surya perdana motor,zachya_23@.......com,0818-0872-3328,"cipinang, jakarta timur, jakarta Jakarta, 13420"
142,142,Rumah MobilMotorKu.com,rumahmobilmotorku@.......com,021 71453178,"jakarta, Jakarta Jakarta, 13720"
143,143,Seltech Utama (Jakarta),titian.pramudya@.......com,,"Jl. Brigjen Katamso, Jakarta Indonesia Jakarta, 11420"
144,144,PT. Wiratama Lusindo,cs@.......com,021 87754859,"Jl. Taruna Jaya, Mufakat, No.78 Cibubur, Jakarta Timur Jakarta, 13720"
145,145,CV GLOBAL ENGINEERING,eri@.......co,021 94936693,"Kp Telaga Murni 113, Bekasi West Java, 17841"
146,146,BENGKEL SEPEDA,,0813-4561-3003,"PONTIANAK West Kalimantan, 78123"
147,147,AHOJA CELLULAR,ahojacelluler@.......com,0812-4900-500,"Jl. Raya Sumberayu, Selatan balai desa Sumberberas, Banyuwangi East Java, 68411"
148,148,Part Genset,,021 62309703,"Jl Mangga Besar IX No 2D-1,, 11170"
149,149,Part Of,info@.......com,0623 61738516,"Jalan Drupadi No 9Q,, 80361"
150,150,part batik,yudapart@.......com,0857-2511-4830,"bali, Denpasar Bali, 80111"
151,151,part-notebook.com,trtjaya@.......com,0816-1322-531,"Ruko Jembatan 3 no. 11 J jakarta-utara, Jakarta Jakarta, 11730"
152,152,Jodog Creative Space,madejodog@.......com,0623 61977321,"POBox 35,, 80571"
153,153,Joned Art Space,joned.art@.......com,0856-3309-256,
154,154,Jazb Beauty Space,info@.......com,0623 61738882,
155,155,Clear White Space,jo@.......com,0361 7932328,
156,156,Philo Art Space,info@.......com,,"Jl Kemang Timur 90 C,, 12730"
157,157,North Art Space,sales@.......com,021 64710319,"Jl Lodan Timur No 7,, 14430"
158,158,Third Eye Space,weare@.......com,0622 17394050,"Jl Nangka 1 No6 Cipete Utara,, 12150"
159,159,Space For Living,ikeaforideas@.......com,0878-7830-5009,"Bellanova Country Mall GS 2 no 9, Sentul City, 16180"
160,160,Syang Art Space,syang_art@.......com,0622 93360963,"Jl MT Haryono No 2, Magelang Central Java, 56122"
161,161,Share For Others,info@.......org,0622 15706970,"Jl Jend Sudirman Kav 7-8, Jakarta, 10220"
162,162,Monolog Space Design,monologspacedesign@.......com,0812-9779-8823,"15a Jl. Duri (Tss Raya), Jakarta, 11270"
163,163,PT Visual Space,visualspace8@.......com,0877-7530-0559,"Ruko Permata Ancol Blok O no 5 Pademagan jAKARTA uTARA, Jakarta Jakarta, 14420"
164,164,Indoniles Electric Parts Pt,,031 3984373,"Jl Mayjen Sungkono 8 Gs, Surabaya"
165,165,Indonesian Racing,redaksi@.......com,0325 239429,
166,166,Pusat Komputer Online,info@.......com,031 5450108,
167,167,Gemateknika Toolindo Sistema,sales.admin@.......gts.co.id,021 89920695,"Jl Aster Raya No57, Bekasi West Java, 17550"
168,168,Buka Laundry,sales@.......com,021 49002828,"Diamond Boulevard J 01/01,, 11730"
169,169,PT.SUPRAEKA KARYAPRIMA,sahat@.......com,0813-8406-4109,"Jl.Sunter Kemayoran No.55 Jakarta Utara, Jakarta Jakarta, 14350"
170,170,Pits Teknik Master Genset,mydewaz@.......com,0361 725027,"Jl. Raya Sesetan 295, Denpasar, Denpasar Bali, 80111"
171,171,ServisKursiKantor.Com,serviskursikantor@.......com,021 37850462,"Jl. Satu Maret No. 99, Jakarta Jakarta, 11830"
172,172,PT. Raya Indo Fortuna,lina@.......com,0622 15843557,"Jl. Raya Pos Pengumben No.39B Srengseng - Jakarta Barat 11630, Jakarta Barat Jakarta, 11630"
173,173,Polyurethane Product,xyzrendi@.......com,021 94278096,"Medang Lestari Blok D IV/C No.23, Tangerang Banten, 15820"
174,174,MURAH MOTOR,murahmotor@.......com,0813-9001-4065,"Jl. Raya Ungaran Gunungpati km 2, SEMARANG Central Java, 50155"
175,175,Suka Damai,,021 6267380,"Jl Karang Anyar Raya, Jakarta Jakarta, 11150"
176,176,Cv Kafitec,kafitecbandung@.......com,022 7234066,"Jl.Babakan Hantap Rt 03 Rw 08 no 11, Bandung West Java, 40281"
177,177,Toko AVR,part@.......com,021 99310968,"Lindeteves Trade Center (LTC) Fl. GF 1 blok C-28 no. 1 Hayam Wuruk #127, Jakarta Jakarta, 11160"
178,178,Hotel Flores Sare,reservation@.......com,0623 8121075,
179,179,UD. ABDUL MANAF JAYA,essammanaf@.......com,0810-1703-946,"jl kolonel sugiono ngingas selataan rt03 rw01 waru sidoarjo, Sidoarjo East Java, 61256"
180,180,PT. LAJU MANDIRI,hrd@.......co.id,0813-3311-0644,"Ruko Ifolia Blok HY 46 Nomor 46, Kota Harapan Indah, Bekasi West JAva Indonesia, Bekasi West Java, 17214"
181,181,CV. Rizanta Indonesia,sales@.......co.id,031 5677169,"Jl. Raya Gunungsari No. 126 Surabaya, Surabaya East Java, 60242"
182,182,Sumato Adhi Pratama,sumato.ap@.......com,,"Komplek Mega Spare Part BLok D06 No 1-2B, Jakarta Jakarta, 11150"
183,183,Service Genset Jakarta,servicegensetjakarta@.......com,021 6259104,"Jl. Hayam Wuruk 61, Jakarta Barat Jakarta, 11160"
184,184,Surya Kencana Variasi Motor,suryakencana.variasi@.......com,031 70015189,"Ruko Gading Fajar II Blok D1 no 3, Sidoarjo East Java, 61252"
185,185,gudang velg mobil,riyanr228@.......com,0811-1848-441,"surya kencana no 17 pamulang barat pamulang barat, pamulang, 15417"
186,186,Sentral Yanmar Prambanan,,0812-1602-4240,"Jl Jogja Solo Km19 No9,, Indonesia, Prambanan, 57454"
187,187,Jayalift mitra perkasa,jayalift@.......com,0896-3181-5081,"Jln. Poncol IV No. 31 A, Jati Padang, Pasar Minggu, Jakarta Selatan Jakarta, 12540"
188,188,Party Balloons Shop,partyballoonsshopindonesia@.......com,0822-2563-5555,
189,189,Swiss Paris Lotion,sales@.......com,0896-9822-2948,"AGUS SUNARTO JLKAMBOJA V no 32,, 25132"
190,190,Kenzo Paris Boutique,,021 3107563,"Jl Mh Thamrin Kav 28-30, Jakarta"
191,191,Royal Party Organizer,badut-ku@.......com,021 36519997,
192,192,Parta Jaya Cv,,031 7493137,"Jl Margomulyo 44 D/3, Surabaya"
193,193,Paris Collection Toko,,061 7363945,"Jl Mh Thamrin Psr Ramai 476, Medan"
194,194,Marret Party Service,info@.......com,031 70574007,
195,195,Parfum Les Paris,,021 7209282,"Blok M Plaza 220, Jakarta"
196,196,Paros Dian Wijaya,soediro@.......com,021 82650539,
197,197,Bali Private Party,info@.......com,0819-9911-1342,
198,198,Paris Batik Jogja,,0857-4197-8587,"Jl Kaliurang KM 57,, 55281"
199,199,Ria'S Party Shop,,031 8492133,"Jl Kalirungkut 66-66 A, Surabaya"
200,200,Paras Stone Carving,,0812-3986-080,
201,201,Paris Bakery Indonesia,info@.......com,0274 589939,"PT Paris Bakery Jalan AM Sangaji No 68A,, 55281"
202,202,Hotman Paris & Partners,,021 2522460,"Jl Jend Sudirman Kav 61-62 Summitmas I Lt 18, Jakarta"
203,203,Paras Rupa Photography,info@.......com,0878-6156-1009,
204,204,Badilany Parti Pt,,021 7974886,"Jl Raya Pasar Minggu 16 C, Jakarta"
205,205,An'Ge Paris Toko,,021 6016215,"Jl Mangga Dua Raya Ged Itc Mangga Dua Bl A/98, Jakarta"
206,206,Cafe De Paris,,021 71793470,"Jl Kemang Raya 90, Jakarta"
207,207,Club De Paris,,061 4537733,"Jl Kol Sugiono 16 Cdef, Medan"
208,208,PARIS KONVEKSI KAOS,pariskonveksi@.......com,021 93896574,"BEKASI, Bekasi West Java, 17114"
209,209,""" PARIS "" CAKE & BAKERY",budisuryanto21@.......com,0813-2531-7888,"Jl. Sapta Prasetya 4 no1, Semarang Central Java, 50192"
210,210,Thinker Party Planner,gg.sandi@.......com,0813-3828-3913,"Perum Pesona Udayana, Jalan goa gong, bukit jimbaran, Denpasar Bali, 80361"
211,211,Sophie Martin Paris,imelsampah@.......com,0852-6080-9605,"Jl. Singgalang No. 39, Bandaaceh Nanggroe Aceh Darussalam, 23243"
212,212,Hokky Kids Party,dewa.badut.bali@.......com,0361 3076420,"Sidakarya - Denpasar, Denpasar Bali, 80112"
213,213,Party Lover Organiser,partyloverorganiser@.......com,,"Denpasar Bali, Denpasar Bali, 80361"
214,214,New Raya Motor,sales@.......com,031 5451900,"Jl Kedung Doro 89, Surabaya East Java, 60261"
215,215,DEALER MOTOR SUZUKI MILENIUM KRANJI,susie.suzukimilenium@.......co.id,021 95188853,"Jl Sultan Agung km 28,5 Rawa Pasung, Bekasi East Java, 13771"
216,216,PT EIKA - Amphibi Excavator / Alat Berat / Pontoon,irwan@.......co.id,021 46620667,"Jl. Husein Sastra Negara No 199, Jakarta Jakarta"
217,217,Pd.Laris Jaya,pdlarisjaya@.......com,021 82495451,"raya narogong km 23, cileungsi West Java, 16820"
218,218,PT.SAKURA CENTRAL SOLUTION,kris.sakurasentral@.......com,021 7183448,"GRAHA OBOR 3 Lt.2, Dki JAKARTA Jakarta, 12720"
219,219,cahaya makmur sejahtera,cmsac.2011@.......com,021 62305522,"gedung lindetes trade center Jl.Hayam Wuruk 127 Lt. GF1 Blok C26-8, jakarta barat Jakarta, 11180"
220,220,Jayana Sewing Machine & Parts Co,,022 4260020,"Jl Otto Iskandardinata 204, Bandung"
221,221,"Turbomachinery Parts Manufacturing Indonesia, PT",sales@.......co.id,022 7834634,"Jl. Soekarno - Hatta No. 825, Bandung West Java, 40613"
222,222,Rejo Agung Bike Shop & Parts,,0623 15317061,"Kalianyar 19A, Surabaya Jawa Timur"
223,223,PT. LAJU MANDIRI,sales@.......co.id,0813-3311-0644,"Grand Boulevard Asia Tropis AT16 No.5 Harapan Indah Bekasi, Bekasi West Java, 17131"
224,224,MULUS TEKNIK,rista_makmur@.......com,,"Jl. dirgantara 06 no.76 Bumi Asri Cijerah, Bandung West Java, 40111"
225,225,Tjampaka motor,dikeuynf@.......com,0813-5234-5779,"Jalan Bandung- Garut KM. 27 Rancaekek (Parakan Muncang), kabupaten Bandung West Java, 40394"
226,226,Space At Bali Villas,info@.......com,0623 61731100,
227,227,Spade Tours And Travels,travel@.......com,021 83790333,"Gd Graha Spade,, 12820"
228,228,OFFICE SPACE IN JAKARTA,olivia@.......com,0812-9561-212,
229,229,Space Inter Designs Inc,,031 5633318,"Jl Raya Ra Kartini 102-104, Surabaya"
230,230,Space at Bali Villas,info@.......com,0623 61731100,
231,231,Fa Lucky Space Advertising,luckyspace@.......com,0858-7849-0641,"Jln Ring Road Utara Casa Grande Kav.442 Sleman, Sleman Yogyakarta, 55282."
232,232,NALURI - Share & Download - GRATIS,ayo_download@.......co.id,0817-7578-9077,"Online, Jakarta West Java, 12345"
233,233,Space Age Plastic Industries,,0859-6411-9051,
234,234,The Heart Space Bali,,0877-6014-9615,"Nyuh Kuning Rd, MAS, Ubud, Kecamatan Ubud, Kabupaten Gianyar, Bali, Ubud, Indonesia 80571"
235,235,IQOS Partner Believe Space,,0813-5103-8223,"Jl. Belatuk 10 &, Jl. Belatuk, Temindung Permai Sungai Pinang, Cafe Area, Samarinda, Kalimantan Timur 75243"
236,236,Isma Computer,ismacomputer@.......com,021 91701983,"Jl. Keamanan No. 48 RT. 003/05, Jakarta Timur Jakarta, 13430"
237,237,GENSET MURAH SEMARANG,kian.abaditechnics@.......com,0812-2800-0579,"WOLOGITO 2 NO 25, SEMARANG Central Java, 50146"
238,238,PD.Laris Jaya,pdlarisjaya@.......com,021 82495451,"raya narogong km 23, cileungsi West Java, 16820"
239,239,"BINTANG DIESEL JAYA,UD",bdj_27b@.......co.id,,"JL.TAMAN SARI RAYA NO. 27B, JAKARTA BARAT Jakarta, 11150"
240,240,AzTec Engineering,marketing.aztec@.......com,0856-2211-797,"Mustikajaya Grahaharapan C6/19, Bekasi West Java, 17158"
241,241,cipta mandiri,c.marine@.......com,0852-1470-5792,"jl:jati.I.no.36.rt003/010.kel:kebon bawang., tanjung priok Jakarta, 14320"
242,242,Expert Engine Part,sales@.......com,,"Block F8 kw 18,, 11550"
243,243,Sampurna Part Niaga,,,
244,244,Sentra Part Services,,031 8663903,"Jl Griyo Mapan Sentosa Fa I/9, Surabaya"
245,245,Kerja Part Time,yulinda_116@.......com,0856-9769-2870,"Tangerang Selatan, Tangerang Banten, 15416"
246,246,bekasi computer part,bcp_bekasicyberpark@.......com,021 8849051,"JL KH NOER ALI NO 177 BEKASI, Bekasi West Java, 17144"
247,247,SYNERGY AUTO PART,synergy_aut0@.......com,,"Jl. Jagir 100 Mangga 2 POT Blok C No.80-81, Surabaya West Java, 60254"
248,248,PT. CIPTA KARYA PRIMA,bubutck@.......com,,"Jl. Anyar Raya No. 56, West Jakarta Jakarta, 11460"
249,249,Sakura Central Solution,eddy@.......com,021 70060536,"Jalan Bangka Raya no. 110, Jakarta Jakarta, 12720"
250,250,Japan Motor Service,,021 4223521,"Jl. Kalilio No. 31 Senen, Jakarta Pusat Jakarta Raya, 10410"
251,251,Jual Brearker Hummer,yos_agp@.......com,0822-3165-0303,"Jl. Jemursari 2H, Surabaya East Java, 60237"
252,252,Service Forklift dan Rekondisi Battery Forklift,sales.kardesaude@.......com,0815-5102-470,"Jl Bandeng Raya No.196, Bekasi West Java, 17144"
253,253,Indovisual Service Projector Semarang,admin_semarang@.......com,,"Jl. Kartini No 42C, Semarang Central Java, 50125"
254,254,PT Sakura Central Solution,said.scs@.......com,0856-9589-9877,"Graha Obor II Lt.3 Suite F.305, jakarta Jakarta, 12720"
255,255,Jayalift mitra perkasa,jayalift@.......com,0896-3181-5081,"Jln. Poncol IV No. 31 A, Jati Padang, Pasar Minggu, Jakarta Selatan Jakarta, 12540"
256,256,Paras Ayu Salon & Spa,,0623 61283455,"Jl Danau Tondano 45A, Sanur BALI, 80228"
257,257,Grins And Giggles Party,grinsandgigglesparty@.......com,0361 7497244,
258,258,De Paris Bakery & Cake,,0251 8382676,"Jl Surya Kencana No299,, 16141"
259,259,Crystal Party Organizer & Agency,,031 5991048,"Kompl Laguna Indah Iv/P3-8, Surabaya"
260,260,JETSET Event & Party Organizer,,0815-5008-879,"Jl. Kenjeran 300 Ruko Center Point A-29, Surabaya East Java, 60134"
261,261,butik sophie paris online,,0821-2425-1618,"kp.cibuntu, bekasi East Java, 17520"
262,262,National Parks in India,,,"4, Khasa Kothi, Enrekang Maluku, 2011"
263,263,Donny Herlinda Compressor Parts Sales Pt,etrade.gaurav@.......com,021 8613890,"Jl I Gusti Ngurah Rai Kompl Tmn Buaran Indah I Bl Cc/1 B, Jakarta"
264,264,"Ducoo Metal Parts Manufacturing Co., Ltd.",,,"Kampus Unhas, Makassar South Sulawesi, 90213"
265,265,"Baochen Auto parts manufacturing Co.,ltd.",,,"jatiuwung tangerang Banten, 40115"
266,266,Suku Cadang Forklift,lina@.......com,021 5843557,"Jl. Raya Pos Pengumben No.39B, DKI Jakarta Jakarta, 11630"
267,267,tritunggaldharma,atrisumarti43@.......com,0813-1425-2228,"Jl. RAYA CELEUNGSI NO.35 KM 10 DESA CIPEUCANG - JONGGOL DKT TAMAN BUAH MEKARSARI BOGOR - JAWA BARAT, jakarta Jakarta, 13056"
268,268,PT. Pacific Tractor Indonesia,,021 42882103,"jalan Bungur Besar 17, block 7 No. B5, Jakarta Jakarta, 10610"
269,269,Bandingin.com (PT Spark Integrated Solutions),digitalmkt@.......com,021 5812843,"DE 18 Plaza Kedoya Elok DE-18, Jl. Panjang Raya, Kedoya Selatan, Kebon Jeruk, Jakarta Barat, 11520, Kebon Jeruk DKI Jakarta, Indonesia 11520"
270,270,IQOS Partner D'Royal Coffee Space,,1 500 975,"Jl. Merdeka Barat No.44, Lancang Garam, Kec. Banda Sakti Kota Lhokseumawe, Aceh, Lhokseumawe, Aceh 24355"
271,271,IQOS Partner Meraki Coffee & Space,,1 500 975,"Jalan. DR. Sutomo No. 185, Pekiringan, Kec. Kesambi Cafe Area, Cirebon, Jawa Barat 45131"
272,272,Benzi Motorsport,benzimotorsport@.......com,021 28788030,"Mall Mega Glodok Kemayoran Lt. 6 Blok E 10 No. 1-2 Jakarta pusat, Jakarta Jakarta, 10360"
273,273,Prima Transmission,jetsetorganizer@.......com,021 6282060,"jl pangeran jayakarta no.121, Jakarta Jakarta, 10730"
274,274,Sparepartgenset Part Solution diesel,pacific.tractor@.......com,0816-4843-354,"jakarta Jakarta, 11440"
275,275,service forklift,sales@.......com,021 51159697,"polaga.tekhnik@gmail.com, tanjung priuk Jakarta, 14340"
276,276,CV. ANUGRAH METALINDO,,,"Jl. Batununggal Indah II No. 195, Bandung West Java, 40266"
277,277,Pelumas Agip Italia,sales@.......com,0812-2121-1109,"Jl Bojong Raya Bandung, Bandung East Java, 40245"
278,278,PELITA,pelita.sewing@.......com,031 5345944,"JL.BUBUTAN 107 i Surabaya, Surabaya East Java, 60111"
279,279,PELITA,partsolutiondiesel@.......com,031 3520719,"BUBUTAN 107 i., SURABAYA West Java, 60162"
280,280,Darma motor,pelita.sewing@.......com,,"Jl. Kebun kosong, Jakarta Jakarta, 13230"
281,281,Arisco Mandiri,mulyadi@.......com,021 62317681,"Komplek Mega Spare Parts, Jakarta Jakarta, 11150"
282,282,7292A Turned And Pressed Parts Plumbing And Sanitary Fittings,anugrahmetalindo@.......com,,"Jl. Jend. A. Yani No. 16, Sorongo Jawa Barat"
283,283,Dunia Terus Sentosa,,022 6033705,
284,284,Mitra Sarana Pratama,booking@.......com,,"Jl. Agung Utara Raya, Jakarta Jakarta, 11160"
285,285,Seven Auto Salon & Accessories,t_woko@.......com,0623 15010202,
286,286,TOP 1 Oli Sintetik Mobil-Motor Indonesia,polaga.tekhnik@.......com,,"Purwokerto Central Java, 43545"
287,287,OLI AGIP,marketing@.......com,0812-2121-1109,"Bojong Raya, Bandung West Java, 40113"
288,288,MEGA CAHAYA TEKNINDO,,,"Jakarta, Jakarta Jakarta, 11460"
289,289,PT. Surya Terang Pratama,t_woko@.......com,0812-1955-1260,"Attn. Bp. Acong, Jl. Panjang Arteri Kedoya No. 9A, Fl 3rd#105, Jakarta Barat Jakarta, 11520"
290,290,PT.KAGAWA SEJAHTERA INDONESIA,ariscomandiri@.......com,0267 4417481,"JL.Raya Citra Kebun Mas, Karawang West Java, 41371"
291,291,Suria Ban,,061 4532123,"JL. Timor, No. 21 C - D Perintis, Kecamatan Medan Timur, Kota Medan, 20232"
292,292,Pitstop Karawaci,,021 55776050,"Karawaci Ofice Park, blok A no.7, RT01/RW09, Lippo Karawaci, Tangerang, 15811"
293,293,UD Maju Ban,,0351 462467,"Jl. Jendral Urip Sumoharjo No.33, Manguharjo, Madiun, 63127"
294,294,Warna Warni Ban Serpong,,021 5397347,"Jalan Muhammad Husni Thamrin No.39 Panunggangan Pinang, Kota Tangerang, Banten 15143"
295,295,Sumber Rejeki Solo Baru,,0271 5722268,"Jl. Yos Sudarso, Tj. Ongih, Kwarasan, Sukoharjo., Surakarta, 57552"
296,296,SM Motorsport,,0812-3456-5438,"1 Jalan Panjang No.38 RW.11 Kebon Jeruk Kecamatan Kebon Jeruk, Kota Jakarta Barat, DKI Jakarta 11530"
297,297,CARSOME Denpasar Inspection Center,,021 50202030,"Pertokoan Marlboro 366 Jl Teuku Umar Barat No 366 Unit R4/R5,, Kec Denpasar Barat Padangsambian Klod, Denpasar 80117"
298,298,CARSOME Sawah Besar Inspection Center,,021 50202030,"Jl Sukarjo Wiryopranoto No 16C, RT3/RW1, Kecamatan Gambir,Kota Jakarta Pusat, Kec Gambir Daerah Khusus Ibukota, Jakarta 10120"
299,299,CARSOME Alam Sutera Experience Center,,021 50202030,"25 BC NOMOR B06 dan 07, Perumahan ALAM SUTERA,Alam Sutera, RUKO JALUR SUTERA, Tangerang Tangerang Selatan, Banten 15143"
300,300,CARSOME Bekasi Experience Center,,021 50202030,"Jl A Yani No 78 & 79, RT005/RW001, Marga Jaya, Kec,Bekasi Sel., Kota Bks, Bekasi Selatan Jawa Barat, Bekasi 17141"
301,301,CARSOME Pondok Indah Experience Center,,021 50202030,"No 1A, Jl Sultan Iskandar Muda, Kby Lama Sel, Kec Kby Lama,Kota Jakarta Selatan, Kebayoran Lama Daerah Khusus Ibukota, South Jakarta 12240"
302,302,CARSOME Makassar Inspection Center,,021 50202030,"Jl AP Pettarani No 18,, Panakkukang Tamamaung, Sulawesi Selatan 90231"
303,303,CARSOME Balikpapan Inspection Center,,021 50202030,"Jl Bukit Damai Indah No 4/03,Sungai Nangka, Komplek, Balikpapan Kalimantan Timur, Kalimantan Timur 76114"
304,304,CARSOME Tasikmalaya Inspection Center,,021 50202030,"Jl HZ Mustofa No 291, Rt06/Rw03,, Kec Cihideung Tugujaya, Tasikmalaya 46126"
305,305,CARSOME Bogor Experience Center,,021 50202030,"Jl Raya Tajur No 109, RT01/RW05, Graha Mandiri,Kota Bogor, Tajur, Bogor Jawa Barat, DKI Jakarta 16134"
306,306,CARSOME Palembang Inspection Center,,021 50202030,"Jl Basuki Rahmat Ruko No 5 RT033, RW08, 20 Ilir DII,, Kemuning South Sumatera, Palembang 30151"
307,307,CARSOME Depok Experience Center,,021 50202030,"Jl Margonda Raya No 508, Evenciio Apartment, LD, Pondok Cina,Kecamatan Beji, Kota Depok, Depok Jawa Barat, Jawa Barat 16424"
308,308,CARSOME Puri Indah Experience Center,,021 50202030,"Jalan Puri Indah Raya, Blok R, Puri Indah CBD,Jakarta Barat, West Jakarta Kembangan, DKI Jakarta 11610"
309,309,CARSOME Yogyakarta Inspection Center,,021 50202030,"Jl Kaliurang Km 6, No 8,Ringroad Utara, Sleman Sariharjo, DI Yogyakarta 55281"
310,310,CARSOME Bandung Experience Center,,021 50202030,"Jl Soekarno Hatta No 241,Kota Bandung, Kopo, Kec Bojongloa Kaler Jawa Timur, Bandung 40223"
311,311,CARSOME Malang Experience Center,,021 50202030,"Jl Letjend S Parman No 93, Purwantoro,Kota Malang, Kec Blimbing Jawa Timur, Malang 65126"
312,312,CARSOME Serang Inspection Center,,021 50202030,"Jalan Tb Suwandi Lingk, Batok Bali,, Kec Ciracas Banten, Serang 42116"
313,313,CARSOME Bekasi Inspection Center,,021 50202030,"Jl Raya Siliwangi No 130 RT001/RW005,, Kec Rawalumbu West Java, Bekasi 17114"
314,314,CARSOME Kemang Inspection Center,,021 50202030,"Jl Kemang Timur No 21A, RT4/RW3, Bangka,Kec Mampang Prpt, Kota Jakarta Selatan, Mampang Prapatan Daerah Khusus Ibukota, South Jakarta 12730"
315,315,CARSOME Cibinong Inspection Center,,021 50202030,"Blok D No 1, Rukan Cibinong City Centre, Kelurahan Pakansari,Kota Bogor, Cibinong Kecamatan Cibinong, Bogor 16915"
316,316,CARSOME Surabaya Inspection Center,,021 50202030,"Jl Margorejo Indah No A112, Margorejo,Kec Wonocolo, Kota SBY, Kota Pekalongan Jawa Timur, Jawa Tengah 60238"
317,317,CARSOME Kelapa Gading Experience Center,,021 50202030,"No 64, Jalan Raya Barat Boulevard, Blok LC 7, Kecamatan,Kotamadya, Kelurahan Kelapa Gading Barat, Jakarta Utara Jakarta Utara, DKI Jakarta 14240"
318,318,CARSOME Semarang Inspection Center,,021 50202030,"Jl Brigjen Sudiarto No 127,, Kec Gayamsari Jawa Tengah, Kota Semarang 50282"
319,319,CARSOME Solo Inspection Center,,021 50202030,"Jl Ir Soekarno No 15/54, Dusun 3, Langenharjo,, Sukoharjo Jawa Tengah, Jawa Tengah 57552"
320,320,CARSOME Bandung Inspection Center,,021 50202030,"Jl Jenderal Gatot Subroto No 57, Malabar,Kota Bandung, Kec Lengkong Jawa Barat, Kota Bandung 40262"
321,321,CARSOME MT Haryono Experience Center,,021 50202030,"MT Haryono St No Kav 30 & 31, RT1/RW14,, Jakarta Selatan East Tebet, DKI Jakarta 12820"
322,322,CARSOME Puri Inspection Center,,021 50202030,"Nomor 38, Rukan Puri Mansion, Jl Lkr Luar Barat, RT2/RW1,Kembangan, Kota Jakarta Barat, Blok A, West Jakarta Daerah Khusus Ibukota, DKI Jakarta 11610"
323,323,Anugerah 88,pt_surya_terang@.......com,0822-6753-1029,"112-A Jalan Imam Bonjol Nomor 112-A, Kelurahan Karya, Kecamatan Tanjungbalai Selatan Kota Tanjung Balai, Provinsi Sumatra Utara 21314"
324,324,Apple Tree Toys N Party,datamayamitraparts@.......com,0812-9005-969,"Jl Rempoa Permai No 36,, 15412"
325,325,Ibu Djoko Catering & Party Service,tritunggaldharma@.......com,021 7805529,"Jl Cilandak KKO No 41,, 12550"
326,326,raflesia event organizer & party equipment,raflesia_centre@.......com,021 92655666,"jl batu ampar 3 no 3 condet jakarta timur, jakarta Jakarta, 10110"
327,327,Executive Office Space & Virtual Office Services,info@.......com,0623 61289260,
328,328,Heart Space Bali - Healing & Yoga Ubud,,0881-0374-13517,"Nyuh Kuning Rd, MAS, Ubud, Kecamatan Ubud, Kabupaten Gianyar, Bali, Indonesia 80571"
329,329,DearAstrid Story Sharing Space | Psikolog Surabaya,,0812-1667-1214,"Royal Residence BS-12 No. 56, Surabaya, Indonesia 60227"
330,330,Honda Tiger,hermas.nikolas@.......com,,
331,331,CV. Mitra Liftindo Pratama,sales@.......com,0813-4959-6019,"Jl. Tatah Bangkal luar, Banjarmasin Central Kalimantan, 70247"
332,332,RC Niagara,borneoelevator@.......com,021 66552002,"Jl KH Agus Salim 120, Jakarta Jakarta, 10350"
333,333,TANAMA,info@.......co.cc,0838-7098-8559,"Purimas Garden D5, Palembang South Sumatra, 325411"
334,334,PT. Arita Prima Indonesia Cabang Bandung,,022 88881110,"Jl. Terusan Buah Batu, Buah Batu Commercial Area No. 1 Bandung 40286, Bandung West Java, 40286"
335,335,PT.Aman Global Pasific,bengkelanugerah88@.......com,0888-0320-9867,"Jl.jemursari 2h Surabaya, Surabaya East Java, 60237"
336,336,Alpha Omega Mulya Abadi,byonics@.......com,,
337,337,Cipta Lestari Teknik,,021 6631062,"Jl Jembatan Tiga Raya No 5M, Jakarta Utara Jakarta, 14450"
338,338,Inverator,paijowijaya@.......com,0819-3183-5247,"Kebumen Central Java, 54311"
339,339,Water Treatment indonesia,megact_diesel@.......com,0852-2845-4948,"Hotline Office, Denpasar Bali, 80361"
340,340,"jual, rental/sewa forklift",appletreeshop@.......com,0812-9046-3464,"jl.wijaya kusuma ll no.q244 rempoa ciputat, tangerang selatan Banten, 15412"
341,341,United Marine Indonesia,wtpro.indo@.......com,0622 16509695,"Jl. Danau sunter selatan, Kompleks ruko royal sunter blok E no12, Jakarta Jakarta, 14350"
342,342,Intermesindo,info@.......com,021 55657279,
343,343,Ud. Cipta Unit Part Service,marketing@.......com,0812-9962-599,
344,344,Turbomachinery Part Manufacturing Indonesia Co,sales@.......co.id,0627 834634,
345,345,"Autolube System, Jual Spare Part AutolubeSystem, Installasi Autolube, Maintenance Autolube, Autolube Alat Berat mesin industri dan juga pertambangan",supplier@.......com,021 71357686,"Roko Bukit Dago Blok AA.6 No. 11, Jakarta Banten, 16340"
346,346,Honda Tiger,sales@.......com,,
347,347,Multi Motor,portalmsc@.......com,0341 560359,"Jl Raya Tlogomas 28, Malang Jawa Timur"
348,348,Otomasi,sales@.......com,0899-9993-622,"Jl Raya Fatmawati Kav 26i, Jakarta Selatan Jakarta, 12450"
349,349,PD Mega,byonics@.......com,022 4230078,"Jl. Cikawao 49, Bandung West Java, 40261"
350,350,Rental Genset,mwkhighlander@.......com,0877-8660-4593,"Pergudangan prima centre blok D5 Pergudangan prima centre blok D5 jl.raya pool ppd pesing poglar ray, Jakarta Jakarta, 1710"
351,351,Karya Teknik,,0812-8889-3935,"Bekasi, Bekasi West Java, 17510"
352,352,Standard Diesel,bandung@.......com,061 7343689,"Jl. Plaju No.17 Medan 20214, Medan North Sumatra, 20214"
353,353,CV. Cahaya Teknik,ciptaunitpartservice@.......co.id,0812-1779-8416,"Jl. Lidah Kulon 3B/21 Surabaya, Surabaya East Java, 60213"
354,354,Specialized Diesel Injection Pump,,0812-5346-276,"Jl.PM.Noor Perum Bumi Sempaja GH-20, Samarinda - East Kalimantan East Kalimantan, 75117"
355,355,Sumber Teknik,tech_trust@.......co.id,0629 1821078,"Jl. Bhineka 18, Saumlaki Maluku, 97664"
356,356,Tekno Coat Nusindo,,0622 14251815,"Jl Letjen Suprapto No 5,, 10530"
357,357,Minindo Jaya,megapompa@.......co.id,0625 42876386,"Jl MT Haryono123,, 76114"
358,358,Tekno Coat Nusindo,sales@.......com,021 62308336,"Lindeteves Trade Center Lt UG blok C 21 No 3,, 10120"
359,359,Minindo Jaya,,0622 14201815,"Jl Letjen Suprapto No 5,, 10530"
360,360,Tekno Coat Nusindo,sumber_teknik.saumlaki@.......com,021 89900203,"Jl Inti 1 Blok C1 No 8,, 17550"
361,361,putra-art,,0838-6563-2762,"tumang sari,cepogo,boyolali, Boyolali Central Java, 57362"
362,362,KING WORLD SPORT,tech.marzdirgaraya@.......com,0853-7072-0892,"Jl Jend Gatot Subroto 30 Medan - NORTH SUMATERA - INDONESIA, Medan North Sumatra, 20135"
363,363,PT Buanacakra Kencanapratama,putraart44@.......com,0622 16009788,"Jl. Raya Taman Sari 56 BE, Indonesia Jakarta, 11150"
364,364,cv.portal kerja bersama,,0812-9046-3464,"jl.wijaya kusuma ll no.q244 rempoa ciputat timur, tangerang selatan Banten, 15412"
365,365,CENTRAL COMP,,021 44833012,"CILINCING LAMA 1 NO 30 CILINCING RAYA JAKARTA UTARA 14120, JAKARTA Jakarta, 14120"
366,366,ridlo04@gmail.com,ridlo04@gmail.com,0857-4007-7472,"Jl.sinar asih 3/967i, Semarang Central Java, 50192"
367,367,AUTO ROTARY bintaro AC Mobil,shelistd@.......com,021 7342209,"Jl. RC Veteran no : 1a, Bintaro Raya. Tanah Kusir., Jakarta Selatan Jakarta, 12330"
368,368,VICTORIA,edypranantapurba@.......com,0815-6879-123,"YOGYAKARTA, Yogyakarta Yogyakarta, 55272"
369,369,PT. MULTISUKSES WAHANA KARYA,hary.candra@.......com,0858-1379-8688,"PESING POGLAR RAYA D5, JAKARTA BARAT, Jakarta Jakarta, 11710"
370,370,PT. PRIBUMI INTI SELARAS,ferryjensenlie@.......co.id,,"Jl. Prambanan Raya No. 15, Bekasi Jakarta, 17000"
371,371,PT. Herros Suplindo,pribumiselaras@.......com,0622 16298469,"JL Pangeran Jayakarta, Komplek 66 Blok. B No. 12, Jakarta Pusat, 10730, Jakarta Jakarta, 10730"
372,372,Arta Bali Tours,portalmsc@.......com,0622 731750,
373,373,PT. Ramtex,info@.......com,021 42900111,"Ruko Mega Grosir Cempaka Mas, Cempaka Putih Jakarta, 10640"
374,374,Rhoda Jaya Cv,jprjak@.......net.id,031 5457722,"Jl Penghela 50 A-B, Surabaya"
375,375,Fadil Bina Liberty Pt,jackson@.......co.id,061 8822015,"Jl Paya Bakung Iii-C/20 Bji, Medan"
376,376,Pagoda Sakti Jaya,,031 5353986,"Jl Achmad Jais 74 A, Surabaya"
377,377,Dwimitra Perkasa,,031 5315690,"Jl Bubutan 112, Surabaya"
378,378,CV.CIPTA MANUNGGAL PERSADA,cvcipta.manunggal_persada@.......com,0813-1538-1283,"JL.MAJA RAYA NO.18B LAGOA TJ PRIUK JAKARTA UTARA 14270, Jakarta Indonesia, JAKARTA UTARA Jakarta, 14270"
379,379,PUSKEPSRO,mail@.......com,,"ROXY SQUARE LT 1 BLOK B 8 NO 9, JAKARTA BARAT Jakarta, 11440"
380,380,Search Sports (www.search-sports.com),dng_s@.......com,0831-9477-8272,"Jl. Otto Iskandar Dinata 449-B, Bandung West Java, 60141"
381,381,Solo Antena,cahaya.teknik_sby@.......com,0817-0637-578,
382,382,PT. KARYA MANUNGGAL PRESISI,,,"Jl. Jababeka IX Blok P No.10 G,, Bekasi West Java, 17520"
383,383,PT. TRIGUNA SAKTI SEJAHTERA,storesearchsports@.......com,0821-1137-2739,"Perum Griya Hegar Asri Blok C 5 no. 1D, Bekasi East Java, 17814"
384,384,AxelaSport,jakarta_1802@.......co.id,061 64512319,"JL.Thamrin No.169 B, Medan North Sumatra, 20122"
385,385,sinar jaya teknik,sinarhariadi@.......com,031 81237376,"jl.wiyung taman bhakti no.52, Surabaya East Java, 60228"
386,386,Donny Herlinda Compressor Part Sales Pt,sales@.......com,031 7327894,"Jl Darmo Indahsari Iii Bl Cc/8, Surabaya"
387,387,"Sewa Genset, Rental Genset, SPBU part",imam@.......com,,"Jl. Fatmawati No 54 F, Jakarta Indonesia Jakarta, 124430"
388,388,PT. Teknograha Rekayasa,,022 70956276,"Jl. Cisaranten Kulon No.19, Bandung West Java, 40294"
389,389,PT. Agma Sentral Abadi,puskespro@.......com,021 85336415,"Jl. Raya Joglo No. 36 Joglo Kembangan, Jakarta Barat, Jakarta Jakarta, 11640"
390,390,Poweroad,agmasentral.abadi@.......com,0622 13511069,"Unit 2092, Jl Pecenongan Jakarta, 10120"
391,391,Transform your space with Vinyl Flooring-Decora Plastic,,0857-9613-7137,
392,392,Moradon,marketing@.......com,021 6510560,
393,393,GENSET INDONESIA,marketing@.......com,0812-8322-9226,"JL.MANGGA BESAR RAYA KOMPLEK 38 NO:38AN, JAKARTA Jakarta, 11150"
394,394,CITRAKARYA REKSAGUNA,rahman@.......com,0812-1884-0235,"SENTRA BISNIS BLOCK SB9 NO.1,JL.HARAPAN INDAH RAYA KOTA BEKASI, BEKASI West Java, 11732"
395,395,Logam Mulia Jaya,davidtandiono@.......com,021 54395931,"Jl. Raya Kapuk No. 89, Jakarta Utara Jakarta, 14460"
396,396,CV. Global Aftermarket,salessupport@.......com,021 32445122,"Jl H Mencong No 50, Banten West Java, 15151"
397,397,Obat Penghilang Tahi Lalat Swiss Paris Lotion,solo_antena@.......co.id,0857-0723-2000,"Perum Jaya Regency Blok G-18 Sidoarjo, Surabaya East Java, 60275"
398,398,Ria * All Event & Party * (ANR Management Group),gar.jkt@.......com,021 91686681,"Jl.Enim.No.29.Rt.6/2 .Tg.Priok.J-U, Jakarta - Utara Jakarta, 14330"
399,399,Systema Precision,marketing_lmj@.......com,021 53906777,
400,400,Rayika,sales@.......com,021 89836696,"Jl Durentiga Raya no9, Jakarta Jakarta, 12760"
401,401,PT Diprintz,diprintz11@.......com,0813-8816-7158,"Kinibalu Street No.41A Cilacap, Jawa Tengah, Jawa Tengah Cilacap, Indonesia 53212"
402,402,boilers service,contact@.......com,0821-1199-9918,"JL Panda VI NO 18 Cikarang Pusat Jababeka Indonesia jakarta, Bekasi West Java, 17815"
403,403,Gading Jaya,,021 6262013,"Pertokoan Glodok Jaya lt 4 blok C 46,, Jakarta Jakarta, 11180"
404,404,kellydiesel,,021 82607266,"jln raya margi utami, bantargebang-bekasi, Bekasi East Java, 17151"
405,405,Ud Pertama Motor,,031 70437873,"Jalan Raya Balongpanggang Timur Bri, Gresik Jawa Timur"
406,406,Michaelbzone,agus_pribadi1808@.......com,0813-9610-2237,"Taman Meruya Ilir Blok D10 / 37, Jakarta Jakarta, 11620"
407,407,Troyevan Saragih,pt.karyamanunggal@.......co.id,0818-0813-1677,
408,408,Grahadika Adipurna,gadingjayajakarta@.......com,021 4201909,"JL Garuda 80 B, Jakarta Jakarta, 10620"
409,409,Bajra Bali,bajrajaya@.......com,0812-3977-140,
410,410,THE STATION,tanti.ads@.......com,022 91250460,"SETRAMURNI 1, BANDUNG Central Java, 40152"
411,411,Andalan Putra Motor,andalanputramotor@.......com,061 69965048,"Jl Mesjid No.25, Medan North Sumatra, 21124"
412,412,Ruth's Chris Steak House,,62215221178,"Somerset Grand Citra, Ground Floor, Jalan Prof. Dr. Satrio Kav. 1, Jakarta Selatan, JK 12940"
413,413,PT BUANA ASIATAMA,kellydiesel_78@.......co.id,,"Jl.Panjang Arteri Kedoya no 9A, Jakarta Jakarta, 11520"
414,414,Ji-Track,thestationcbr@.......com,021 82482943,"Jalan Transyogie Km.6 Perumahan Legenda Wisata, Ruko Litlle China Blok JB-2, Cibubur Jakarta, 16965"
415,415,Gemilanglestarit.co.cc,utindo.creativeworks@.......com,0283 344844,
416,416,PT. Pompa-Electronic,polychemsales@.......com,0896-2760-6910,"Jl.Veteran Selatan II 205-E Mamajang Dalam, Makassar South Sulawesi, 90135"
417,417,place bikes ( place-bikes.com ),infogemilang@.......com,0853-7072-0893,"Jl Pandu 93/2,Pasar Baru,Medan, Medan North Sumatra, 20245"
418,418,place bikes ( place-bikes.com ),,0853-7072-0893,"placebikes1@gmail.com, Medan South Sumatra, 20245"
419,419,CV. UNITED MULTI ORDER INDONESIA,placebikes2011@.......com,021 88956503,"Jl.Kh.Mochtar Tabrani, Perwira Blok A16 No.1, Jakarta Raya Jakarta, 17122"
420,420,Erzet Industrial Teknik Pt,riarachman41@.......co.id,021 8004171,"Jl Al Falah 6, Jakarta"
421,421,Escalator Second,natasha.pompaelectronic@.......com,0812-8848-618,
422,422,oli total,nurhadi2001@.......com,021 99041595,"Heliconia Ext HO2, Harapan Indah, Bekasi East Java, 17131"
423,423,CV. METHA JAYA TEKNIK,info@.......com,031 8669280,"Jl. Ikan Arwana A/23 Tambakrejo, Sidoarjo East Java, 61256"
424,424,SINAR BADJA MULIA - Platbajabesi.com,platbajabesi@.......com,021 9271286,"Jl. Buni Raya No 46, Jakarta Jakarta, 11180"
425,425,BERKAH MANDIRI / KALVIN AC,k_sujiwo@.......com,,"JL RAYA ROROTAN RT 10/RW10 NO 3, JAKARTA UTARA Jakarta, 13910"
426,426,BALON PROMOSI,placebikes1@.......com,0813-1465-3383,"AREVA.ID Jl.Kramat Pulo Dalam 2 No.G 6c Senen, Jakarta Pusat DKI Jakarta, Indonesia 10450"
427,427,RAJANYA TUMBLER MURAH,,0858-8351-2578,"Jalan Setia, Kota Bks Jawa Barat, 17116"
428,428,Rajanya Promosi,,0812-9907-6453,"13 Jalan Hankam, Jakarta Daerah Khusus Ibukota Jakarta, 12550"
429,429,Pakarti Riken Indonesia,cahyobincent@.......com,021 30042648,"Tower Arcadia Selatan Unit CA / 05 / GF, Jakarta Utara Jakarta, 14240"
430,430,Citicon Adhinugraha,arevaballoon@.......co.id,021 53670077,"Menara Citicon, Jakarta Barat Jakarta, 11410"
431,431,CV.Multi Gemilang,,0821-3028-9789,"Jl.Pesantren No.112 Cibabat Kota Cimahi, Cimahi East Java, 40513"
432,432,rijqyi motor plus,rizal.marketing@.......net.id,0857-7658-5848,"kp cigola,, Bogor West Java, 16630"
433,433,Khatulistiwa Mandiri,gery_liong@.......com,0561 721561,"Jl. KH A. Dahlan No 79, Pontianak West Kalimantan, 78113"
434,434,Seven Auto Salon,mandiri_motor@.......com,0623 15010202,
435,435,PT. MUTIARA TIGA BERLIAN,methajayateknik@.......co.id,0813-1056-5613,"Jl. D.I. Panjaitan No. 7, Jakarta Timur Jakarta, 13410"
436,436,PT Sharprindo Dinamika Prima,wahyu.away87@.......com,0857-1751-1186,"Jl. Industri Raya Blok A No 6, Tangerang Banten, 15313"
437,437,Totalindo Mandiri,info_multi19@.......com,0542 8879087,"Jl,Mt Haryono, Kompleks Ruko BDI Blok 1/3, Balikpapan Kalimantan Timur, 76114"
438,438,servis trapo.servis motor generator,,0813-1777-7486,"cikeas gunung putri bogor, bogor Jakarta, 17151"
439,439,Rembrandt Crystal,imanmmaulana@.......co.id,,
440,440,Asahi Plas,,0627 78471811,
441,441,Brit Cycle,,021 5853724,"Jl. Raya Pesanggrahan No. 38C, Jakarta Barat Jakarta, 80122"
442,442,"CIPTA MANUNGGAL PERSADA, CV",mutiaratigaberlian@.......com,0818-0633-4672,"JL. Tipar Cakung Sukapura, Jakarta Jakarta, 14140"
443,443,Pc print,cipta.mansada@.......com,021 27071595,"Jl. Karttini 9, No.1, DKI Jakart Jakarta, 10750"
444,444,Rio Dinata,,0812-8489-3433,"JL.Utan Kayu Raya no 105B Jaktim, Jakarta Timur Jakarta, 13120"
445,445,SERVICE GENSET & PANEL AMF / ATS,sonymarsono2@.......com,0813-1422-0221,"JL. Bango Ciater Villa Mellia Rawa Kalong Gunung Sindur, Bogor, West Java 16115"
446,446,Puriwedding,sales@.......com,0627 923993,
447,447,Gaya Baru Motor,,,"Jl Enggano 95, Jakarta"
448,448,Superis,sales@.......com,031 5996629,"Jl Klampis Jaya 25 E, Surabaya"
449,449,Budi Jaya Bengkel,,021 7669439,"Jl Ciputat Raya 6, Jakarta"
450,450,Setia Kawan Motor Toko,service_genset@.......com,031 5340163,"Jl Walikota Mustajab 44-46, Surabaya"
451,451,Rekayasa Motor Ud,,031 8418920,"Jl Raya Rungkut 7, Surabaya"
452,452,Rizki Motor Bengkel,,031 5990278,"Jl Manyar Sabrangan 114, Surabaya"
453,453,Patriotindus Tritama Pt,,021 6405546,"Jl Danau Sunter Brt Bl A-1/3, Jakarta"
454,454,Honda Service,mamanups@.......com,061 4515609,"Jl Dr Wahidin 6 K, Medan"
455,455,Serba Toko,info@.......com,031 3537714,"Jl Indrapura 14, Surabaya"
456,456,Swanindo Sakti Motor Pt,,021 7292030,"Jl Ciputat Raya 1, Jakarta"
457,457,Graha Motor Bengkel,,031 5668932,"Jl Dukuh Kupang Brt 32/39, Surabaya"
458,458,Sumber Jaya Intemusa Pt,,021 3858802,"Jl Krekot Bunder Iv/127, Jakarta"
459,459,Seraya Motor Ud,,031 5342257,"Jl Kedungdoro 167, Surabaya"
460,460,Trio Jaya Toko,,021 5688653,"Jl Raya Kedoya 9, Jakarta"
461,461,Surabita Prasidha Pt,,031 5327516,"Jl Undaan Wetan 90, Surabaya"
462,462,Saudara Tengah Cv,sales@.......com,061 8450815,"Jl Tanjung I/165, Medan"
463,463,Fariasi Toko,,031 5323363,"Jl Tidar 116, Surabaya"
464,464,Service Ahass Bengkel,,031 8496446,"Jl Raya Kali Rungkut 56 B, Surabaya"
465,465,Zen Motor,,031 5681004,"Jl Raya Gunungsari Ii/100, Surabaya"
466,466,Yanto Motor Pd,,021 8604505,"Jl Kejaksaan 5, Jakarta"
467,467,Waru Jaya Motor,,031 8533965,"Jl Raya Waru 22, Surabaya"
468,468,Teguh Motor Bengkel,,031 5313862,"Jl Psr Kembang 84, Surabaya"
469,469,Jaya Motor Cv,,021 8656735,"Jl Raya Kalimalang 1, Jakarta"
470,470,Hendro Toko,,031 5311955,"Jl Kedungdoro 80 A, Surabaya"
471,471,Galur Kawasaki Motor,hermas.nikolas@.......com,021 4255908,"Jl Tanah Tinggi Tmr 4 C, Jakarta"
472,472,Bintang Anugerah Toko,,061 4551337,"Jl Dr Wahidin 47, Medan"
473,473,Sampuma Motor Ud,,031 3985803,"Jl Jend A Yani 45 Gs, Surabaya"
474,474,Aneka Motor Ii,,021 7414871,"Jl Pajajaran Raya 3, Jakarta"
475,475,Remaja Service,,061 7866683,"Jl Sisingamangaraja 360, Medan"
476,476,Emma Jaya Bengkel,,031 5340986,"Jl Embong Malang 78 B, Surabaya"
477,477,Aneka Jaya Toko,,021 6327225,"Jl Biak 5 E, Jakarta"
478,478,Mujur Motor Toko,,061 4150395,"Jl Mesjid 119 A, Medan"
479,479,Laris Jaya Motor,,021 8463775,"Jl Jatiwaringin Raya 53, Jakarta"
480,480,Joko Motor,,031 3729066,"Jl Kedung Cowek 145, Surabaya"
481,481,Glory Motor Ud,,031 3760866,"Jl Sidodadi Iv/43, Surabaya"
482,482,Gembira Jaya Motor Toko,,031 5932091,"Jl Manyar 59 E, Surabaya"
483,483,Dunia Jaya Motor,,021 7220913,"Jl Wolter Monginsidi 129 B, Jakarta"
484,484,Cirebon Toko,,061 7368428,"Jl Dr Sutomo 158, Medan"
485,485,Bioli Lestari,,031 8792309,"Jl Gununganyar Tambak 118-119, Surabaya"
486,486,Bintoro Jaya Motor,,031 5616152,"Jl Ruko Permata Bintoro Kav 112-115, Surabaya"
487,487,Jaya Abadi Motor,,021 7971049,"Jl Buncit Raya Pulo 7, Jakarta"
488,488,Sani Bengkel,,031 8475354,"Jl Jagir Wonokromo 10, Surabaya"
489,489,Samudra Daya Prima Nusa Pt,,021 6493040,"Jl Karanganyar Raya 53-54 Bl B/22, Jakarta"
490,490,Fajar Toko,,031 5323835,"Jl Bubutan 21, Surabaya"
491,491,Alfa Motor Bengkel,,031 5011205,"Jl Ngagel Rejo Kidul 73, Surabaya"
492,492,Ahas Nur Motor,rio.dinataptdjk@.......com,031 3948181,"Jl Pemuda 17 Sdy, Surabaya"
493,493,Panca Motor Cv,,021 7235655,"Jl Panjang 3, Jakarta"
494,494,Jitu Sepeda Motor,,061 6613207,"Jl Dr Sutomo Ujung 52, Medan"
495,495,Jati Motor,,031 5925463,"Jl Semolowaru 46, Surabaya"
496,496,Ginting Jaya Motor,,061 8212679,"Jl Letjen Jamin Ginting 95, Medan"
497,497,Harapan Jaya Toko,,061 4148112,"Jl Jend Gatot Subroto 172/46, Medan"
498,498,Riama Jaya Toko,,061 4574032,"Jl Surakarta 8, Medan"
499,499,Bintang Terang Makmur Toko,,061 4512904,"Jl Mesjid 112, Medan"
500,500,Aneka Kedoya Motor,,021 5806376,"Jl Kedoya Duri Raya E-2/30-B, Jakarta"
501,501,Andalas Toko,,061 4145766,"Jl Surakarta 44/64, Medan"
502,502,Valqua Indonesia Pt,,031 7405548,"Jl Raya Banjar Sugihan 7, Surabaya"
503,503,Tiger 2000 Honda Motor Cv,,061 4571134,"Jl Jend Gatot Subroto 63/83 B, Medan"
504,504,Prima Jaya Motor,,021 7500095,"Jl Ciputat Raya 22, Jakarta"
505,505,Sumber Mas Toko,,061 4570411,"Jl Surakarta 19 B, Medan"
506,506,Selly Toko,,061 4156160,"Jl Surakarta 8 A, Medan"
507,507,Rezeki Motor Toko,,031 5048850,"Jl Kapas Krampung 132, Surabaya"
508,508,Rahman Motor Ud,,031 3559359,"Jl Indrapura 4, Surabaya"
509,509,Yamaha Toko,,021 7392138,"Jl Rs Fatmawati 15 F, Jakarta"
510,510,Tri Surya Motor Bengkel,,031 8495287,"Jl Raya Kalirungkut 102, Surabaya"
511,511,Visi Cakrawala Pratama,,031 5632756,"Kompl Ruko Villa Bukitmas Rf 9, Surabaya"
512,512,Serasi Toko,,061 8215090,"Jl Dr Setiabudi 96 C, Medan"
513,513,Rejeki Toko,,031 5340111,"Jl Raden Saleh 24, Surabaya"
514,514,Rezeki Baru,,061 4519170,"Jl Perdana 89, Medan"
515,515,Serba Jaya Toko,,061 7341004,"Jl Dr Sutomo 104, Medan"
516,516,Waru Agung Motor Ud,,031 8536472,"Jl Brigjen Katamso Ii/9, Surabaya"
517,517,Sumber Service,,061 8459480,"Jl Jend Gatot Subroto 18, Medan"
518,518,Tunas Harapan,,031 7482759,"Jl Margomulyo Permai G/20, Surabaya"
519,519,Rezeki Motor Toko,,061 8213156,"Jl Letjen Jamin Ginting 480 B/112, Medan"
520,520,Puri Toko,,031 5323727,"Jl Pasar Kembang 75, Surabaya"
521,521,Restu Motor Toko,,031 5313866,"Jl Psr Loak Dupak Rukun I/I/21, Surabaya"
522,522,Kurnia Sembada Pd,,021 6196501,"Jl Daan Mogot Km 14/23-24, Jakarta"
523,523,Sriwidjaja Pd,,021 3860448,"Jl H Samanhudi 30, Jakarta"
524,524,Harapan Maju Toko,,061 8215005,"Jl Dr Setiabudi 81 I, Medan"
525,525,Hidayah Bengkel,,021 8742935,"Jl Gas Alam Rt 07/Rw 05, Jakarta"
526,526,Bina Motor Toko,,061 4564968,"Jl Jend Gatot Subroto 5, Medan"
527,527,Maju Motor Toko,,061 4516663,"Jl Jend A Yani Iv/17, Medan"
528,528,Bali Jaya Toko,,061 4516427,"Jl Mesjid 51, Medan"
529,529,Kawan Kita Toko,,021 6314750,"Jl Prof Dr Latumeten 20 Bb, Jakarta"
530,530,Kusuma Jaya Motor,,031 5669245,"Jl Dukuh Kupang Brt 23, Surabaya"
531,531,Honda Lamro Toko,,061 4157720,"Jl Prof Hm Yamin Sh 224 I, Medan"
532,532,Seraya Motor Ud,,031 5318703,"Jl Kedungsari 86 B, Surabaya"
533,533,Gembira Jaya Ud,,031 5932091,"Jl Manyar 59 E, Surabaya"
534,534,Cahaya Service,,061 4519799,"Jl Mesjid 168 B, Medan"
535,535,Medan Jaya Toko,,061 7361206,"Jl Asia 184 E, Medan"
536,536,Harapan Jaya Toko,,031 5327174,"Jl Kedungsari 4, Surabaya"
537,537,Harapan Baru Service,,061 4514022,"Jl Mesjid 163 A, Medan"
538,538,Meganusa Semesta Pt,,061 4155678,"Jl Jend Gatot Subroto 198 A, Medan"
539,539,Nina Motor Bengkel,,031 5944965,"Jl Manyar 61, Surabaya"
540,540,Iskandar Motor Pd,,021 8190045,"Jl Otto Iskandardinata Raya 45, Jakarta"
541,541,Duta Mahajaya Pt,,061 4156007,"Jl Letjen Haryono Mt 2 Abc, Medan"
542,542,Daichi Indonesia Pt,,031 3570123,"Jl Dupak 36, Surabaya"
543,543,Asli Jaya Toko,,061 4512281,"Jl Mesjid 65, Medan"
544,544,Laris Toko,,031 8678615,"Jl Rungkut Menanggal 32, Surabaya"
545,545,Inti Jaya Motor,,031 3714458,"Jl Kapas Krampung 119 A, Surabaya"
546,546,Hongkong Service,,061 4516844,"Jl Mesjid 18, Medan"
547,547,Hero Service,,061 4530646,"Jl Kelapa 8 F, Medan"
548,548,Kurnia Jaya Motor,,021 8703151,"Jl Raya Bogor Km 27/28, Jakarta"
549,549,Karmel Bengkel,,021 4535181,"Jl Boulevard Raya Bl Qj-3/28, Jakarta"
550,550,Sumber Mas Toko,,061 4517107,"Jl Mesjid 107, Medan"
551,551,Surya Motor Ud,,031 5328042,"Jl Kedungdoro 80 V-W, Surabaya"
552,552,Karomah Toko,,031 5461710,"Jl Psr Dupak Rukun Iii B/9, Surabaya"
553,553,Serba Motor Toko,,031 5464370,"Jl Raden Saleh 59 E, Surabaya"
554,554,Sinar Jaya Motor,,031 3528573,"Jl Indrapura 12, Surabaya"
555,555,Kusuma Jaya Toko,,031 5672510,"Jl Raya Dukuh Kupang Brt 23, Surabaya"
556,556,Hari Sani Toko,,061 4518499,"Jl Mesjid 36, Medan"
557,557,Rapi Toko,,061 4519621,"Jl Mesjid 63, Medan"
558,558,Jaya Pratama,,061 7362210,"Jl Dr Sutomo 167 A, Medan"
559,559,Inti Roda Makmur,,021 5407046,"Jl Raya Serang Km 5, Jakarta"
560,560,Mewah Toko,,061 4571141,"Jl Surakarta 91, Medan"
561,561,Multiparts Prima Industri Pt,,031 7507047,"Jl Raya Cangkir 73, Surabaya"
562,562,Sudarso Service,,061 6617103,"Jl Kom L Yos Sudarso 1 Q/225, Medan"
563,563,Sigma Anekakarya Indah Pt,,022 5400342,"Jl Kopo 572, Bandung"
564,564,Resky Baru Toko,,031 5324175,"Jl Kedungdoro 189, Surabaya"
565,565,Muda Toko,,061 4514904,"Jl Mesjid 111, Medan"
566,566,Cahaya Baru Pd,,021 4209191,"Jl Angkasa 2, Jakarta"
567,567,Mitra Bengkel,,031 8287901,"Jl Pulo Wonokromo 176, Surabaya"
568,568,Lm Motor Bengkel,,031 5465680,"Jl Tidar 264, Surabaya"
569,569,Eka Sakti,,021 4250867,"Jl Stasiun Senen 49, Jakarta"
570,570,Varia Insan Mekarindo Pt,,061 6629555,"Jl Kom L Yos Sudarso 28, Medan"
571,571,Citra Motor Toko,,061 4157479,"Jl Surakarta 21/97, Medan"
572,572,Bintang Asia Toko,,031 5456362,"Jl Tidar 240, Surabaya"
573,573,Nasri Sinar Baru,,061 4147083,"Jl Surakarta 8, Medan"
574,574,Murah Jaya Abadi Bengkel,,021 7432190,"Jl Dewi Sartika 119 A, Jakarta"
575,575,Sumber Jaya Toko,,021 3841211,"Jl S Wiryopranoto 20, Jakarta"
576,576,Apolo Motor Toko,,031 5467123,"Jl Jend Urip Sumoharjo 40, Surabaya"
577,577,Aneka Jaya,,021 7267146,"Jl Arteri Pd Indah 6, Jakarta"
578,578,Adi Motor,,031 7317145,"Jl Darmo Indah Sari Kr Bl Dd-2/22, Surabaya"
579,579,Prima Motor Bengkel,,021 3812437,"Jl Abd Muis 78 A, Jakarta"
580,580,Bhineka Jaya Iii,,021 7253459,"Jl Ciputat Raya 2, Jakarta"
581,581,Sumber Barokah Bengkel,,031 8498651,"Jl Rungkut Menanggal 26, Surabaya"
582,582,Selecta Service,,061 4570027,"Jl Merbabu 23 H, Medan"
583,583,Akor Toko,,031 3766249,"Jl Sidotopo Wetan 247, Surabaya"
584,584,Sentolang Bengkel,,031 3981370,"Jl Veteran 140 A Gs, Surabaya"
585,585,168 Service,,061 4558430,"Jl Prof Hm Yamin Sh 319, Medan"
586,586,Polonia Toko,,021 8012141,"Jl Raya Bogor 70, Jakarta"
587,587,Navy'S,,021 4534448,"Jl Boulevard Tmr Bl Cb/1 Kompl Auto Sv 2000, Jakarta"
588,588,Medan Mitra Niaga Pt,,061 4158802,"Jl Pemuda 18 Defg, Medan"
589,589,Bengkel Arm Motor,,031 3976767,"Jl Veteran 175 Gs, Surabaya"
590,590,Makmur Toko,,061 7361663,"Jl Asia 196, Medan"
591,591,Serba Jadi Service,,061 4515322,"Jl Mesjid 22, Medan"
592,592,Selamat Motor Toko,,061 7341241,"Jl Gandhi 39, Medan"
593,593,Roni Jaya Ud,,031 5926209,"Jl Dharmahusada 28 C, Surabaya"
594,594,Remaja Toko,,061 4154831,"Jl Mesjid 95, Medan"
595,595,Sinar Makmur Ud,,031 5342355,"Jl Bubutan 158, Surabaya"
596,596,Mabua Harley-Davidson Pt,,021 75906606,"Jl Rs Fatmawati 14, Jakarta"
597,597,Grace Motor Ud,,031 3982545,"Jl Dr Wahidin Sudirohusodo 16 Gs, Surabaya"
598,598,Jaya Abadi Bengkel,,021 6006732,"Jl Mangga Besar 13/2, Jakarta"
599,599,Utama Motor Ud,,031 5343991,"Jl Urip Sumoharjo 70, Surabaya"
600,600,Trio Jaya Toko,,021 6012357,"Jl Kb Jeruk Iii/24-26, Jakarta"
601,601,Djakarta Motor Toko,,021 6396445,"Jl Tmn Sari Iv/17, Jakarta"
602,602,Dewata Toko,,061 4145177,"Jl Surakarta 19 A, Medan"
603,603,Umar Bengkel,,021 7946776,"Jl Buncit Raya 4, Jakarta"
604,604,Pro Se Toko,,021 6012359,"Jl Kb Jeruk Iii/25 B-C, Jakarta"
605,605,Nurman Senatama Pt,,021 7942460,"Jl Rawajati Raya Kalibata Indah Am 8-9, Jakarta"
606,606,Basuki Motor Bengkel,,031 5623986,"Jl Dinoyo 75 A, Surabaya"
607,607,Sumber Multi Hasta Pratama Pt,,021 6324702,"Jl Cideng Tmr 15 F, Jakarta"
608,608,Sumber Jaya Abadi Toko,,031 5341376,"Jl Undaan Kulon 75, Surabaya"
609,609,Jaya Motor Toko,,061 4142968,"Jl Surakarta 9, Medan"
610,610,Empat Jaya Toko,,061 4512695,"Jl Mesjid 101, Medan"
611,611,Eka Lancar Ud,,021 5457255,"Jl Vikamas Slt I/7, Jakarta"
612,612,Champion Toko,,061 6620188,"Jl Kom L Yos Sudarso 197 C, Medan"
613,613,Cahaya Hasil Pd,,031 5452290,"Jl Semarang 51, Surabaya"
614,614,Arena Cahaya Cempaka Pt,,061 7863332,"Gg Ladang 35 A, Medan"
615,615,Amin Motor Toko,,061 6618261,"Jl Kom L Yos Sudarso 199/37, Medan"
616,616,Wahana Kawan Sejati Sakti Pt,,031 5340454,"Jl Urip Sumoharjo 53, Surabaya"
617,617,Vespa Agung Motor,,031 5310429,"Jl Bubutan 107 A, Surabaya"
618,618,Setia Budi Nv,,021 34832051,"Jl Lautze 38 A, Jakarta"
619,619,Setia Harapan Toko,,061 4147083,"Jl Surakarta 8, Medan"
620,620,Multi Perdana,,021 6495638,"Jl Kb Jeruk Iii/62, Jakarta"
621,621,Kumala Jaya Motor,,021 8705745,"Jl Kelapa Dua Wetan 2, Jakarta"
622,622,Kartika Motor Toko,,021 5485522,"Jl Palmerah Brt 38-A Bl A-7, Jakarta"
623,623,Giat Toko,,061 4516981,"Jl Mesjid 75, Medan"
624,624,Aneka Motor I,,021 7402704,"Jl Ir H Juanda 33, Jakarta"
625,625,Hidup Baru Ud,,031 8294463,"Jl Pulo Wonokromo 127, Surabaya"
626,626,Garuda Jaya Motor,,021 7292948,"Jl Ciputat Raya 23, Jakarta"
627,627,Fajar Baru Pd,,031 5342612,"Jl Ngaglik 2 F, Surabaya"
628,628,Aneka Motor Iii,,021 7424513,"Jl Laks L Re Martadinata 35, Jakarta"
629,629,Rahmat Bengkel,,031 8295749,"Jl Pulo Wonokromo 302, Surabaya"
630,630,Nitto Toko,,061 4511139,"Jl Mesjid 120, Medan"
631,631,Maju Motor Toko,,031 5484945,"Jl Dupak Rukun Ii Bl Cc/3, Surabaya"
632,632,Mancung Ud,,031 3815646,"Jl Karang Asem Iv/6, Surabaya"
633,633,Liberty Motor,,031 5342227,"Jl Kedung Doro 66-A, Surabaya"
634,634,Jaya Makmur Toko,,021 8509076,"Jl Otto Iskandardinata Raya 45, Jakarta"
635,635,Jaya Agung Motor,,021 7501360,"Jl Ciputat Raya 12 B, Jakarta"
636,636,Jati Motor Toko,,021 8007161,"Jl Raya Bogor Km 19/103, Jakarta"
637,637,Gama Motor Pt,,031 3550288,"Jl Indrapura 22-A, Surabaya"
638,638,Central Toko,,061 6614129,"Jl Kom L Yos Sudarso 195/31, Medan"
639,639,Sukajaya Bengkel,,021 6193161,"Jl Daan Mogot Km 14, Jakarta"
640,640,Suriana Sinar Motor,,021 5349820,"Jl Palmerah Brt 21 E, Jakarta"
641,641,Astoria Ud,,031 5314250,"Jl Kedungdoro 201 A, Surabaya"
642,642,Anda Toko,,021 5555024,"Jl Raya Dadap 10, Jakarta"
643,643,Sepakat Motor Toko,,061 8212858,"Jl Letjen Jamin Ginting 62, Medan"
644,644,Pasific Motor Ud,,031 5477967,"Jl Baliwerti 58, Surabaya"
645,645,Nusantara Ud,,031 5318403,"Jl Jend Basuki Rachmad 53-55, Surabaya"
646,646,Mitra Berkah,,021 8730145,"Jl Pd Cibubur Bl H/2, Jakarta"
647,647,Naga Mas Toko,,061 4570423,"Jl Surakarta 19/93, Medan"
648,648,Maju Toko,,061 4533352,"Jl Brigjen Katamso 82 E/182, Medan"
649,649,Hidayah Motor Ud,,031 5041765,"Jl Ngagel Rejo 25, Surabaya"
650,650,Honda Ahass Langoan Jaya Bengkel,,031 5670471,"Jl Gunungsari I/42-44, Surabaya"
651,651,Adhi Putra Motor,,0819-0648-9538,"Jl. Pegantungan Baru no.37 B pasar baru Cilegon, Cilegon Banten, 42411"
652,652,Majujayamotor,,,"Lodan raya, Jakarta Jakarta, 14350"
653,653,Jagir Electric,,031 5025923,"Jl Ngagel Jaya Selatan 39 C, Surabaya"
654,654,Medi Turbo Lestari,,061 4524905,"Jl Airtangga 9 C, Medan"
655,655,Bina Niaga Multiusaha,,021 89830472,"Jl Industri Selatan 4, Bekasi West Java, 17530"
656,656,Euroasiatic Jaya Pt,,061 4538607,"Jl Imam Bonjol 16 D Bbd, Medan"
657,657,Vickers Handal Maju Cv,,061 7365178,"Jl Tembaga 3 Cc, Medan"
658,658,Pusaka Tandi Pt,,061 4145152,"Jl Kirana 47, Medan"
659,659,Kencana Sales & Service,,031 7314388,"Jl Simpang Darmo Permai Utr 7, Surabaya"
660,660,International Combustion Technic Pte Ltd,,,"194 Pandan Loop #04-15 (S'Pore), Surabaya"
661,661,Guna Karya Cv,,031 5047335,"Jl Krukah Slt Vii B/15, Surabaya"
662,662,Melindo Raya Sejati Pt,,061 6616133,"Jl Pematang Pasir 27, Medan"
663,663,Tifone Sport,,0626 14143154,"Jl.Pangeran Diponegoro 15C, Medan North Sumatra, 20152"
664,664,GLOBAL METALS CONSULTANCY,,,"&quot;HARI KRISHNA NIVAS&quot;, OPP. KRISHNA COLONY - 2, 58DIGVIJAY PLOT,, JAMNAGAR Bali, 361005"
665,665,Milenia Mitra Harmoni,,021 3510251,"Jl. Pasar baru timur dalam No. 6C, Jakarta Jakarta, 10710"
666,666,Konecranes,,031 7496100,"Jl. Margomulyo 46, Angtropolis Commercial Biz Estate Blok B71-72, Surabaya East Java, 60177"
667,667,Timezone Samasta Jimbaran - Arcade Games & Kids Birthday Party Venue,,0361 4725847,"Jalan Wanagiri, Kabupaten Badung Bali, 80361"
668,668,Timezone Kepri Mall - Arcade Games & Kids Birthday Party Venue,,0778 7490037,"Jalan Sudirman, Kota Batam Kepulauan Riau, 29432"
669,669,Timezone Mall Kartini - Arcade Games & Kids Birthday Party Venue,,0721 242345,"Jl. Kartini, Kota Bandar Lampung Lampung, 35112"
670,670,Timezone Klaten Plaza - Arcade Games & Kids Birthday Party Venue,,0272 325775,"75 Jalan Pemuda, Kabupaten Klaten Jawa Tengah, 57411"
671,671,HUMADECO,,0622 17652711,"Pondok Pinang Center BR12, DKI Jakarta Jakarta, 12310"
672,672,"EKS Metal Hardware Manufacturing Co., Ltd",,,"GUBENG AIRLANGGA III, Surabaya East Java, 60286"
673,673,"Alat Berat China - LonKing (Forklift, Excavator, Wheel Loader)",,0813-2807-1606,"Cengkareng, Jakarta Barat Jakarta, 10000"
674,674,PT. ARTA BEEF,,021 84309277,"Alam Raya 1 Blok M2 No.14, Bekasi West Java, 17117"
675,675,Dieselindo,,0622 16507761,"Jl Agung Timur IX Blk N-1 Kav1B, Jakarta Jakarta, 14350"
676,676,Sinar Jaya Motor,,061 4565466,"Jl Mh Thamrin 76 C, Medan"
677,677,Gaza Motor Pt,,031 5019471,"Jl Dharmawangsa 80 X, Surabaya"
678,678,Duta Jaya Motor,,061 4560736,"Jl Mh Thamrin 51, Medan"
679,679,Arena Motor,,021 7250823,"Jl Ciputat Raya 336, Jakarta"
680,680,Sudi Motor Ud,,061 8452736,"Jl Helvetia By Pass 271, Medan"
681,681,Graha Wirabuana Motor City,,021 3850294,"Jl Abdul Muis 24-26, Jakarta"
682,682,Utomo Motor Honda,,031 5674457,"Jl Raya P Diponegoro 237, Surabaya"
683,683,Dutasemeru Utama Pt,,021 4523311,"Jl Perintis Kemerdekaan, Jakarta"
684,684,Sido Agung Ud,,031 5343982,"Jl Walikota Mustajab 56, Surabaya"
685,685,Satria Motor,,061 7344650,"Jl Sutrisno 50 A/94, Medan"
686,686,Trimurti Motor Ud,,031 8430348,"Jl Tmn Kendangsari 19, Surabaya"
687,687,Utama Motor Pt,,031 5664181,"Jl Pandegiling 91-93, Surabaya"
688,688,Wuyang Pt,,031 5025782,"Jl Kertajaya 164, Surabaya"
689,689,Sentral Yamaha,,061 4521884,"Jl H Adam Malik 32-34, Medan"
690,690,Leo Asia Motor,,061 7363600,"Jl Asia 147 L, Medan"
691,691,Karya Hidup Pt,,031 5323702,"Jl Kedungdoro 80/I A-C, Surabaya"
692,692,Warsito Racing,,021 9142468,"Jl Raya Utan Panjang Iii, Jakarta"
693,693,Usaha Motor,,061 4534352,"Jl Brigjen Katamso 170, Medan"
694,694,Duta Motor Ud,,031 5345419,"Jl Undaan Kulon 105, Surabaya"
695,695,Dian Dwi Putra Pt,,021 4610183,"Jl Rawa Gelam V Bl B 5/11-12, Jakarta"
696,696,Champion Motor,,031 3769779,"Jl Pecindilan 72, Surabaya"
697,697,Champion Motor,,021 5323139,"Jl Raya Kb Jeruk 9, Jakarta"
698,698,Rahayu Motor Ud,,031 3981468,"Jl Veteran 64-68 Gs, Surabaya"
699,699,Wijaya Toko,,061 7368690,"Jl Asia 90/136, Medan"
700,700,Bahagia Delapan Saudara Pt,,061 7347708,"Jl Ir H Juanda Baru 11, Medan"
701,701,Suzuki Djaja Pd,,021 3857646,"Jl Senen Raya 53, Jakarta"
702,702,Mulia Jaya Ud,,031 5322752,"Jl Kedungdoro 52 B, Surabaya"
703,703,Kencanasari Ud,,031 5315162,"Jl Tunjungan 90, Surabaya"
704,704,Cis Motor,,061 4551942,"Jl Jend Gatot Subroto 277, Medan"
705,705,Subur Jaya Ud,,031 5344415,"Jl Peneleh 174, Surabaya"
706,706,Yanita Perdana Cv,,031 7995183,"Ds Kandangan Km 45 Crm, Surabaya"
707,707,Molek Motor,,061 4514728,"Jl Jend Gatot Subroto 12/150 Q, Medan"
708,708,Indojakarta Motor Gemilang Pt,,031 5018401,"Jl Pucang Anom Tmr 46, Surabaya"
709,709,Bintang Motor,,061 4565216,"Jl Prof Hm Yamin Sh 23 W, Medan"
710,710,Capella Dinamik Nusantara Pt,,061 4524418,"Jl Sekip Baru 3-5, Medan"
711,711,Bs Motor,,061 4514346,"Jl Jend A Yani Iv/7, Medan"
712,712,Bintang Jaya,,061 4512946,"Jl Prof Hm Yamin Sh 23 M, Medan"
713,713,Pusat Motor Ud,,031 5672977,"Jl P Diponegoro 239, Surabaya"
714,714,Raja Motor Nusantara Pt,,061 4536133,"Jl Prof Hm Yamin Sh 8-8 A, Medan"
715,715,Multipro Adiguna Semesta Pt,,021 6303373,"Jl Kh Hasyim Ashari Pus Niaga Roxy Mas Bl D 2/12 A-14, Jakarta"
716,716,Benteng Honda Motor Ud,,061 8464378,"Jl Kapt Muslim 182, Medan"
717,717,Mitra Utama Cv,,061 7348938,"Jl Letda Sujono 55-56, Medan"
718,718,Citraagung Motor,,021 6592455,"Jl S Wiryopranoto 43, Jakarta"
719,719,Bahagia Motors Toko,,021 3849480,"Jl Jatibaru 40, Jakarta"
720,720,Polaris Variasi,,021 6592128,"Jl Kb Jeruk Iii/51, Jakarta"
721,721,Mendaki Prima Lestari Pt,,031 5459957,"Jl Jend Basuki Rachmad 44, Surabaya"
722,722,Kalisari Agung Motor Pt,,031 5030067,"Jl Ngaglik 48 B, Surabaya"
723,723,Chandra Motor,,021 6292590,"Jl Kb Jeruk Iii/14, Jakarta"
724,724,Rezeki Motor,,061 7030122,"Jl Deli Tua Km 11/8 A-B, Medan"
725,725,Maju Jaya Motor,,061 4146649,"Jl Jend Gatot Subroto 255, Medan"
726,726,Kencana Menggalaprima Pt,,031 7669406,"Jl Raya Bambe Driyorejo 24, Surabaya"
727,727,Jaya Motor Cv,,021 7292506,"Jl Sultan Iskandar Muda 30 C, Jakarta"
728,728,Hamparanorion Hasilop Pt,,061 4539682,"Jl Toba 1 G, Medan"
729,729,Duta Antara Motor Ii Cv,,061 4556951,"Jl Palang Merah 29, Medan"
730,730,Adiasa Iic Pt,,021 4600722,"Jl Raya Bekasi Km 23, Jakarta"
731,731,Primasetia Suryatama Pt,,021 7490824,"Jl Ir H Juanda 109-B, Jakarta"
732,732,Ika Djaja Service,,021 3849519,"Jl H Samanhudi 41 A, Jakarta"
733,733,Hendri Motor,,021 75903024,"Jl Ciputat Raya 56, Jakarta"
734,734,Hasta Motor,,031 5311526,"Jl Urip Sumoharjo 50, Surabaya"
735,735,Dwitunggal Jaya Lestari Pt,,061 4524985,"Jl Prof Hm Yamin Sh 610-612, Medan"
736,736,Dunia Motorindo,,021 7254549,"Jl Wolter Monginsidi 129 B, Jakarta"
737,737,Tirta Kencana Motor,,021 6251404,"Jl Kb Jeruk Iii/65 A, Jakarta"
738,738,Rodaroda Dinamikperkasa Pt,,061 4571611,"Jl Prof Hm Yamin Sh 259-261, Medan"
739,739,Sejati Motor,,031 3719945,"Jl Kapasari 83, Surabaya"
740,740,Sumatera Toko,,061 4528801,"Jl Jend Gatot Subroto 73 K, Medan"
741,741,Rapi Motor,,061 7990073,"Jl Serdang 60 Per, Medan"
742,742,Yanto Motor,,021 4609291,"Jl Raya Bekasi Km 20/5-6, Jakarta"
743,743,Yamaha Brayan Motor Cv,,061 6631328,"Jl Kom L Yos Sudarso 138 A-B, Medan"
744,744,Wijaya Ud,,031 3541638,"Jl Rajawali 49 N, Surabaya"
745,745,Xyz Toko,,061 4513951,"Jl Mesjid 140, Medan"
746,746,Sari Jaya Biro Stnk,,031 3525003,"Jl Waspada 70, Surabaya"
747,747,Panji Perkasa Perdana Motor Pt,,031 5345027,"Jl Tidar 39, Surabaya"
748,748,Wijaya Ud,,031 5311863,"Jl Demak Tmr 138, Surabaya"
749,749,Wijaya Ud,,031 3537080,"Jl Laksda M Nazir 15 N, Surabaya"
750,750,Suzuki Prapen Motor Pt,,031 8472234,"Jl Prapen 14, Surabaya"
751,751,Selatan Jaya Ud,,061 7342633,"Jl Yose Rizal 3, Medan"
752,752,Serba Motor Pt,,021 3447443,"Jl Lautze 60 B, Jakarta"
753,753,Tri Sejati Lestari Abadi Pt,,061 4530791,"Jl Prof Hm Yamin Sh 21 G-H, Medan"
754,754,Roma Motor,,061 6627896,"Jl Kom L Yos Sudarso 235, Medan"
755,755,Perwira Indah Motor Toko,,031 3977777,"Jl Panglima Sudirman 23 B Gs, Surabaya"
756,756,Pamindo Prasasti G Pt,,021 6402290,"Jl Agung Niaga 4 Bl G-4/45, Jakarta"
757,757,New Sumber Mas,,031 3767974,"Jl Kalilom Baru I/15, Surabaya"
758,758,Titanindo Maju Makmur Bersama Pt,,061 4523291,"Jl Prof Mh Yamin Sh 23/Ef, Medan"
759,759,Motor 88,,061 7366075,"Jl Asia 208 C, Medan"
760,760,Jaya Mandala Motorindo,,021 4256770,"Jl Kramat Jaya Baru Bl F-1/271, Jakarta"
761,761,Dwi Ariatama Mustika Pt,,021 8734436,"Jl Raya Jakarta Bogor Km 32, Jakarta"
762,762,Grace Motor,,021 8729032,"Jl Raya Bogor Km 27/32, Jakarta"
763,763,Catur Karya Motor Pt,,031 8472118,"Jl Jemur Andayani Ruko 11, Surabaya"
764,764,Delta Motor,,021 5302133,"Jl Palmerah Brt 1 C, Jakarta"
765,765,Kharisma Pt,,031 5033056,"Jl Dharmawangsa 152, Surabaya"
766,766,Angkasa Motor,,021 6294556,"Jl S Wiryopranoto 67 A, Jakarta"
767,767,Aman Jaya Ud,,031 5321312,"Jl Undaan Kulon 117, Surabaya"
768,768,Harson Motor,,031 5925294,"Jl Deles Lebar 11, Surabaya"
769,769,Medan Baru Cv,,061 4149688,"Jl Kapt Pattimura 4, Medan"
770,770,Radita Motorindo Pt,,021 75818187,"Jl Rs Fatmawati 37, Jakarta"
771,771,Putera Sakti Mahajaya Pt,,061 6626475,"Jl Kom L Yos Sudarso 2 P/230, Medan"
772,772,International Enginering Pd,,021 5661639,"Jl Prof Dr Latumeten Perk Kota Grogol Permai 19/Bl C-8, Jakarta"
773,773,Mekar Jaya Toko,,061 4518539,"Jl Mesjid 156 E, Medan"
774,774,Arta Agung Motor Pd,,031 8494016,"Jl Raya Rungkut 80, Surabaya"
775,775,Anugerah Autocentra Abadi Pt,,021 7514881,"Jl Rs Fatmawati 24, Jakarta"
776,776,Bersama Motor,,021 7248162,"Jl Ciledug Raya 11, Jakarta"
777,777,Matandi Motor Ud,,031 5313913,"Jl Kedungdoro 10 A, Surabaya"
778,778,Victoria Motor,,021 5676458,"Jl Tmn Duta Mas 3-5, Jakarta"
779,779,Yoyok Motor,,031 5346623,"Jl Kedung Doro 22-B, Surabaya"
780,780,Diamond Kymcojaya Pt,,031 8542791,"Jl Raya Waru 92, Surabaya"
781,781,Motor Belawan Perus,,061 6941130,"Jl Celebes Blw, Medan"
782,782,Dinaheti Motor Industri Pt,,021 4255640,"Jl Pramuka Kav 72, Jakarta"
783,783,Kurnia Motor,,021 6613289,"Jl Jembatan Gambang 33, Jakarta"
784,784,King Motor,,031 3578216,"Jl Bunguran 27-29, Surabaya"
785,785,Antara Kusuma Pt,,061 7346853,"Jl Sutrisno 112 D, Medan"
786,786,Aneka Motor,,021 4801169,"Jl Raya Penggilingan 2, Jakarta"
787,787,Bembie Motor Industrie,,022 2033664,"Jl Cihampelas 312 A, Bandung"
788,788,Ary Motor Pt,,031 5669015,"Jl Gunungsari Iii/37, Surabaya"
789,789,Arya Niaga Mitra Nusa Pt,,021 5441254,"Jl Lingkar Luar Brt Cengkareng 1-3, Jakarta"
790,790,Maskrindo Komitmen Sentosa Pt,,021 5661841,"Jl Rawa Kepa Xiii/141, Jakarta"
791,791,Multindo Perkasa Pt,,031 3295526,"Jl Jakarta 60, Surabaya"
792,792,Mega Motor Ud,,031 5323463,"Jl Kedungdoro 70-72, Surabaya"
793,793,Sumber Selatan Nusantara Pt,,021 3840345,"Jl Tanah Abang Iii/20, Jakarta"
794,794,Sinar Roda Kencanamas Pt,,021 3849008,"Jl Hayam Wuruk 38, Jakarta"
795,795,Sinar Bahagia Wahana Pt,,021 8561064,"Jl Raya Bekasi Tmr 150 B, Jakarta"
796,796,Sakai Motor Toko,,061 8218226,"Jl Dr Setiabudi 173 Abcd, Medan"
797,797,Jaya Timur Pt,,031 5323165,"Jl Raden Saleh 23, Surabaya"
798,798,Dunia Motor,,021 4301943,"Jl Raya Cilincing 36, Jakarta"
799,799,Centa Multi Carindo Pt,,021 6696111,"Jl Muara Karang Bl O-8 Tmr 68, Jakarta"
800,800,Duta Antara Motor Ud,,061 7340712,"Jl Sutrisno 100-102, Medan"
801,801,Brayan Jaya Pd,,061 6615552,"Jl Kom L Yos Sudarso 35, Medan"
802,802,Kedung Sari Motor,,031 5342724,"Jl Kedungsari 47, Surabaya"
803,803,Bandung Motor,,021 7440458,"Jl Wr Supratman Bl A/9, Jakarta"
804,804,Pelangi Putra Motor,,031 5458878,"Jl Raya Dupak 31, Surabaya"
805,805,Leo Jaya Motor,,061 7365038,"Jl Sutrisno 67, Medan"
806,806,Kesawan Jaya Motor,,061 4144339,"Jl Jend A Yani 118, Medan"
807,807,Far East Motor Pd,,021 3858710,"Jl Lautze 58, Jakarta"
808,808,Danmotors Vespa Indonesia Pt,,021 4523311,"Jl Perintis Kemerdekaan Kelapa Gading Brt, Jakarta"
809,809,Bowo Motor,,021 74701825,"Jl Pajajaran 21, Jakarta"
810,810,Kharisma Motor,,021 8707655,"Jl Raya Bogor Km 28/22, Jakarta"
811,811,Brahmana Motor,,021 8013887,"Jl Raya Condet 1 B, Jakarta"
812,812,Kelompok Empat Sekawan Pt,,061 4535299,"Jl Prof Hm Yamin Sh 132-134, Medan"
813,813,Bege Jaya Motor,,031 5346221,"Jl Kedungsari 21, Surabaya"
814,814,Abadi Motor,,021 7393037,"Jl Gandaria I/23, Jakarta"
815,815,Harapan Motor Sakti Industri Co Pt,,021 6347273,"Jl Gajah Mada 19-26, Jakarta"
816,816,Surya Mandiri Motor,,021 8567554,"Jl Utan Kayu 68 A-B, Jakarta"
817,817,Duta Buana Nusantara Pt,,061 4517091,"Jl Jend A Yani 80, Medan"
818,818,Surya Timur Sakti Jatim Pt,,031 5312121,"Jl Tegalsari 60, Surabaya"
819,819,Armada Ruang Motor Pt,,021 6390630,"Jl Hayam Wuruk 89, Jakarta"
820,820,Karya Baru Service,,061 8821321,"Jl Jend Sudirman 131 Bji, Medan"
821,821,Sarana Abdi Nusa,,061 4534442,"Jl Sultan Iskandar Muda 57-57 A, Medan"
822,822,Orient Motor,,061 4571240,"Jl Semarang 48 A/71, Medan"
823,823,Central Rezeki Motor,,061 4515728,"Jl Mh Thamrin 7 C-D, Medan"
824,824,Asnan Brothers Fa,,061 4518406,"Jl Pemuda Baru 10-12, Medan"
825,825,Kalimaya Indah Motor,,031 8793777,"Jl Raya Kalirungkut 1-3 Rungkut Megah Raya Bl N/30, Surabaya"
826,826,Yamaha Setia Budi Motor Cv,,061 8218955,"Jl Dr Setia Budi 74 Ef, Medan"
827,827,Surya Motor,,021 7665340,"Jl Raya Pasar Jumat 19, Jakarta"
828,828,Setia Budi Bengkel,,,"Jl Enggano 70, Jakarta"
829,829,Cantik Motor Toko,,061 8457250,"Kompl Tomang Elok Bi C-12/127, Medan"
830,830,Sukses Motor,,021 7321724,"Jl Raden Saleh 19, Jakarta"
831,831,Afk Motor,,061 6615870,"Jl Pertempuran 11, Medan"
832,832,Karya Motor,,061 4534392,"Jl Brigjen Katamso 190/82 I, Medan"
833,833,Hidup Baru Toko,,021 6395446,"Jl Kb Jeruk Iii/33-35, Jakarta"
834,834,Persada Aksara Lestari Pt,,061 7358455,"Jl Letda Sudjono 99-100, Medan"
835,835,Libra Topaz Pt,,021 63863357,"Jl Kyai Caringin 18 A, Jakarta"
836,836,Acc Toko,,061 4511204,"Jl Jend A Yani Iv/10, Medan"
837,837,Selamat Toko,,061 4571926,"Jl Surakarta 27, Medan"
838,838,Rotella Persada Mandiri Pt,,061 7941014,"Jl Irian Kompl Nusa Prima Bl A/1-2, Medan"
839,839,Candra Tiara Motor Toko,,031 5017576,"Jl Kertajaya 204, Surabaya"
840,840,River Deli Abadi Pt,,061 4143043,"Jl Mh Thamrin 112, Medan"
841,841,Bintang Pratama Motor Cv,,061 8467332,"Jl Medan-Binjai Km 9/1 A-B, Medan"
842,842,Petisah Motor Ud,,061 4529729,"Jl Nibung Raya 127, Medan"
843,843,Asia Aman Abadi Pt,,061 6616776,"Jl Kom L Yos Sudarso 70 D/158 C, Medan"
844,844,Karunia Cv,,061 8217815,"Jl Dr Setiabudi 84, Medan"
845,845,Duta Putra Sumatera Pt,,061 8823558,"Jl Tmn Pahlawan 269-271 Bji, Medan"
846,846,Cemara Mas Indah Pt,,031 7492016,"Jl Simo Tambaan Ii/66 T, Surabaya"
847,847,Alfa Scorpii Pt,,061 4530935,"Jl Prof Hm Yamin Sh 15 E/F-17/17 A, Medan"
848,848,Sinar Mahkota Indah Pt,,031 5345111,"Jl Arjuna 144/I, Surabaya"
849,849,Sumber Tehnik Pt,,031 5344151,"Jl Tunjungan 50, Surabaya"
850,850,Subur Jaya Motor,,031 5031110,"Jl Kapas Krampung 36, Surabaya"
851,851,Tri Tala Sakti Pt,,021 6592231,"Jl Gn Sahari 28 Bc, Jakarta"
852,852,Oke Motor,,061 7361417,"Jl Sutrisno 3 A, Medan"
853,853,Media Informatika,,061 6616449,"Jl Dr Sutomo Ujung 74 A, Medan"
854,854,Lautan Mahal Cv,,031 5322027,"Jl Kedungsari 27, Surabaya"
855,855,Sinar Motor Toko,,021 6340432,"Jl Gajah Mada 54, Jakarta"
856,856,Juanda Motor,,061 7860648,"Jl Brigjen Katamso 705, Medan"
857,857,Chandra Motor,,031 5322681,"Jl Embong Malang 58-60, Surabaya"
858,858,Aksara Motor Cv,,061 7322202,"Jl Aksara 135-136, Medan"
859,859,Indo Sejahtera Motor Ud,,061 4555308,"Jl Prof Hm Yamin Sh 450, Medan"
860,860,Indah Hamid Karto,,021 6543542,"Jl Kemayoran Bl S/99 B, Jakarta"
861,861,Super Motor Toko,,021 8190535,"Jl Raya Jatinegara Tmr 113, Jakarta"
862,862,Indo Jakarta Motor Gemilang Pt,,031 5465293,"Jl Urip Sumoharjo 39, Surabaya"
863,863,Honda Service,,061 8821010,"Jl Pahlawan 2 H Bji, Medan"
864,864,Galur Motor,,021 4210370,"Jl Letjen Suprapto 96, Jakarta"
865,865,Grand Motor Toko,,061 4150254,"Jl Prof Hm Yamin Sh 384/542, Medan"
866,866,Buana Kencana Lestari,,061 7340278,"Jl Sutrisno 149 C-D, Medan"
867,867,Berdikari Motor,,031 5669039,"Jl Gunungsari 5 I, Surabaya"
868,868,Effendi Motor,,021 8708705,"Jl Raya Bogor Km 273, Jakarta"
869,869,Duta Indah Toko,,061 7940430,"Jl Pahlawan 49, Medan"
870,870,Calista Alba Pt,,031 5354888,"Jl Pasar Besar Wetan 55 A, Surabaya"
871,871,Aneka Teknik,,061 8821507,"Jl Jend Sudirman 39 Bji, Medan"
872,872,Kharisma Suma Jaya Sakti Pt,,031 8430332,"Jl Rungkut Industri Iii/20, Surabaya"
873,873,Guntur Motor,,021 8352540,"Jl Sultan Agung 60, Jakarta"
874,874,Gs Service,,061 4553798,"Jl Pasar Pringgan 2, Medan"
875,875,Berlian Motor,,021 8583399,"Jl Pramuka Raya 11, Jakarta"
876,876,Abadi Motor,,031 5314146,"Jl Tidar 91 L, Surabaya"
877,877,Gajah Motor Cv,,061 4525467,"Jl Gajah Mada 2 G, Medan"
878,878,Varia Mobilindo Pt,,021 3802856,"Jl H Samanhudi 10, Jakarta"
879,879,Briliant Motor,,021 5709191,"Jl Aipda Ks Tubun 59 Z, Jakarta"
880,880,Trimurti Motor Ud,,031 5315910,"Jl Bubutan 56, Surabaya"
881,881,Trijaya Motorindo Pt,,021 6592424,"Jl S Wiryopranoto 47-C, Jakarta"
882,882,Surya Nusantara Motor Ud,,031 8439497,"Jl Jemur Andayani 50 Kompl Ruko Surya Inti Bl A/3-5-6, Surabaya"
883,883,Sani Motor,,031 8281637,"Jl Jend A Yani 172, Surabaya"
884,884,Kawan Motor,,021 5821471,"Jl Puri Kembangan Raya 46, Jakarta"
885,885,Honda City Music,,061 4570959,"Jl Bogor 124, Medan"
886,886,Indo Harapan Motor Toko,,061 6851147,"Jl Medan Belawan 13-14, Medan"
887,887,Fantasi Jaya Toko,,061 4531486,"Jl Timor 10 Bb, Medan"
888,888,Ektudju Pt,,061 4525314,"Jl H Adam Malik 28/30, Medan"
889,889,Citra Motor Cv,,061 4553208,"Jl Pandu 1, Medan"
890,890,Bursa Motor,,061 7862687,"Jl Sisingamangaraja 21, Medan"
891,891,BENGKEL SI 21,,0813-8536-3917,"JL.H.M COKROKUSUMO.NO 100 RT 5 WR1 KEL.SAI BESAI.BANJAR BARU .PRO KALIMANTAN SELATAN, BANJAR BARU Central Kalimantan, 70714"
892,892,www.automotormakassar.com : Auto Motor Makasar Variasi Motor : Braking Components | Bikers' Equipment,info@.......com,0411 3623337,"Jl. Veteran Utara 80, Makassar South Sulawesi, 90157"
893,893,PT Honda Motor Irit,,,"Jl. Dhoho Kediri, Kediri East Java, 64162"
894,894,HAYAKU MOTOR,arul210680@.......com,0287 5569170,"KEBUMEN, Kebumen Central Java, 54471"
895,895,ARISAN MOTOR,rois_affandi@.......com,0856-1144-614,"Tangerang Banten, 15560"
896,896,United Indo Hada,,031 5345600,"Jl Undaan Wetan 50, SURABAYA East Java, 61253"
897,897,Surapita Unitrans Pt,,031 8496988,"Jl Tenggilis Brt I/5-7, Surabaya East Java, 60113"
898,898,Yamaha Motor Kencana Indonesia Pt,,021 5262722,"Jl Hr Rasuna Said Bl X-2/1 Plaza Gri, Jakarta"
899,899,Saudara Motor,kawasaki.jember@.......com,021 6007099,"Jl Kb Jeruk Iii/60 A, Jakarta"
900,900,ALAMANDA MOTOR,,021 96810460,"Jalan Mawar III Blok F VII / 27 Kirana Surya,Pasanggrahan Solear,Tangerang, Tangerang Banten, 15730"
901,901,Anugrah Motor,,031 5031891,"Jl Dharmawangsa 71 A, Surabaya"
902,902,Nusantara Permai,,0622 43517912,"Ruko THD C21, Semarang Central Java, 50137"
903,903,Gwk Cultural Park,info@.......com,0623 61703603,"Darmawangsa Square Lt 1 Unit 57, Jakarta Jakarta, 12160"
904,904,Doctor Boiler,marketing@.......com,021 4600228,"Jl Rawagelam Iii/1 Kawasan Industri Pulogadung, Jakarta"
905,905,P&h Minepro Services,moreinfo@.......com.au,0622 15264704,"Ariobimo Sentral 3rd Floor JI, Jakarta Jakarta, 12950"
906,906,PT DIGI PRINTER,,0812-8218-6002,"Wayan Suseno Komplek Pergudangan Prima Center Pool PPD Pesing Poglar Street #5 Blok B/9 CENGKARENG, WEST JAKARTA, JAKARTA, INDONESIA Komplek Pergudangan Prima Centre, Jakarta Jakarta, DKI JAKARTA 117100"
907,907,General Bicycle,,061 4527735,"Jl. S.Parman Komp.Medan Bisnis Center AA-9, Medan South Sumatra, 80122"
908,908,Hineko Citra Madani,,0342 65096,"Taman Kintamani F4/11B, Bekasi West Java, 17510"
909,909,DUTA SURYA KENCANA,,021 6254938,"Komplek Perkantoran Duta merlin Komplek Perkantoran Duta Merlin, Jl. Gajah Mada B44 No. 3-5 RT. 002 Rw. 008, Petojo Utara, Gambir Jakarta Pusat Petojo Utara, Gambir Jakarta Pusat, Indonesia 10130"
910,910,REALTA CHAKRADARMA,,0622 13861772,"jl petojo melintang no 25a, jakarta, 10160"
911,911,PT BAHTERA MOTOR,yudhaasdars@.......com,0813-2327-9889,"Jl. Raya Narogong (Siliwangi) KM.1 No. 117A Bekasi Depan Showroom Daihatsu, Bekasi West Java, 17115"
912,912,TCM-LONKING,mazjeck@.......com,0878-7836-1903,"JL LINGKAR LUAR BARAT NO 9, DKI Jakarta Jakarta, 11740"
913,913,Grand Kartech,alamandamotor@.......co.id,0622 14600228,"Jl Rawa Gelam III No 1, Jakarta Jakarta, 13930"
914,914,Galangijo,hendy.kasana@.......com,0819-1740-4198,
915,915,Bali Holiday Hotels,info@.......com,0623 61702487,
916,916,Treklombok,seto.hasanudin@.......com,0818-0571-2752,
917,917,Rinjani Online,info@.......com,0370 692179,"Senggigi Plaza Block A3 No 06, West Lombok, 83355"
918,918,Kingsindo,ds.kencana@.......com,0622 46581357,"Jl Raya Semarang - Demak Km 5, Semarang Central Java, 50118"
919,919,Zeevashop,hineko.citra@.......com,022 92159453,"Jl Kubangsari XII No9A Sekeloa,, 40134"
920,920,PT. Multi Servisindo Sarana,galang_ijo@.......com,021 75904455,"Stadion Lebak Bulus Jl. Jagorawi I Tribun B II Jakarta Selatan, Jakarta Jakarta, 12440"
921,921,LIBRA BHAKTI NUSANTARA,subeno@.......net.id,021 43900083,"Jln. Raya Bugis No.17A, Jakarta Jakarta, 14320"
922,922,Indako Trading Co Cv,wmaster@.......net,061 4556900,"Jl Pemuda 18 Defgh, Medan"
923,923,Ciputat Motor Service,kresna@.......co.id,021 7411009,"Jl Dewi Sartika 117 A, Jakarta"
924,924,Istana Tiara Pt,,031 7496869,"Jl Buntaran 8, Surabaya"
925,925,Istana Tiara Pt,,061 4520012,"Jl Joshua 57, Medan"
926,926,Pramuka Motor Service,treklombok@.......com,021 8583530,"Jl Pramuka Raya 9 J, Jakarta"
927,927,Baria Cv,,061 7368937,"Jl Mh Thamrin 127, Medan"
928,928,Tokugawa Electronics,info@.......com,031 8667186,"Jl Mandala Vi/9, Surabaya"
929,929,Sindaro Cv,,061 8211848,"Jl Dr Setiabudi 124 Abcde, Medan"
930,930,Bandung Motor Service,,021 3909804,"Jl Kramat Raya 170, Jakarta"
931,931,Alfin Motor Service,,021 8732789,"Jl Gas Alam Kel Harjamukti, Jakarta"
932,932,Morodadi Cv,sales@.......com,031 3761312,"Jl Sidotopo Wetan 232 A, Surabaya"
933,933,DP MURAH KREDIT MOTOR HONDA,,031 77297565,"SURABAYA, Surabaya East Java, 60000"
934,934,ARTOMORO MOTOR,desfitad@.......co.id,0857-1046-7443,"JL.CILANGKAP 01/02 CIMANGGISK NO8, Depok East Java, 16958"
935,935,Timezone Nagoya Hill Batam - Arcade Games & Kids Birthday Party Venue,,0778 7493612,"15 Jalan Teuku Umar, Kota Batam Kepulauan Riau, 29444"
936,936,"Timezone Garut Plaza - Arcade Games, Bowling, Kids Birthday Party Venue",,0262 543377,"238 Jalan Guntur, Kabupaten Garut Jawa Barat, 44116"
937,937,Timezone Depok Town Square - Arcade Games & Kids Birthday Party Venue,,021 78870195,"358 Jalan Margonda Raya, Kota Depok Jawa Barat, 16431"
938,938,Timezone Lubuk Pakam Plaza - Arcade Games & Kids Birthday Party Venue,,061 7953530,"10 Jalan Serdang, Deli Serdang Regency Sumatera Utara, 20518"
939,939,Bimasakti,libra.jkt@.......com,021 3922534,"Jl KH Wahid Hasyim 14 B, Jakarta Pusat Jakarta, 10340"
940,940,Phenix Bengkel,,031 5345445,"Jl Raden Saleh 14 A, Surabaya"
941,941,Optimal Presisi Karya Pt,artomoromotor@.......com,021 6459088,"Jl Danau Agung V/21 Sunter Agung Podomoro, Jakarta"
942,942,Tekad Tunggal Pt,,031 3712458,"Jl Kapasari 6, Surabaya"
943,943,Teknika Nusantara Cv,,031 3983300,"Jl Harun Tohir 5 Gs, Surabaya"
944,944,Indoprima Gemilang Engineering Pt,,031 7491693,"Jl Margomulyo Indah Bl C/1, Surabaya"
945,945,Kumala Geni Pt,,031 5041049,"Jl Ngagel Tmr 49, Surabaya"
946,946,Gunung Sari Reparasi Dynamo,,031 5679396,"Jl Gunungsari I/72, Surabaya"
947,947,Masayu Trading & Industrial Co Pt,,061 6614079,"Jl Kom L Yos Sudarso 50, Medan"
948,948,Kuat Bengkel,,061 7865900,"Jl Karya Sembada 2, Medan"
949,949,Tunas Jaya Bengkel,,031 5040313,"Jl Bratang Gede 44, Surabaya"
950,950,Tjandi Djaja Cv,,031 8438272,"Jl Rungkut Industri Raya 1, Surabaya"
951,951,Iuvenca,,0361 7807008,
952,952,Marmoyo Bengkel,,031 3815624,"Jl Putro Agung Wetan 2-4, Surabaya"
953,953,Daya Guna Piranti,,031 5620514,"Jl Wonosari Kidul Ii 17, Surabaya"
954,954,Perdana Sekawan Abadi Teknik Pt,,031 8913866,"Jl Joho 44, Surabaya"
955,955,Mitra Jaya Bengkel,,031 8439614,"Jl Rungkut Industri Xii/4, Surabaya"
956,956,Matrako Kromika Indonesia Pt,,031 7481047,"Jl Kalianak 55 M, Surabaya"
957,957,Loka Jaya Bengkel,,031 3769201,"Jl Pogot 117, Surabaya"
958,958,Pratama Bengkel,,031 7480935,"Jl Tanjungsari 66, Surabaya"
959,959,Tjokro Putraperkasa Pt,,031 8430718,"Jl Berbek Industri I/2, Surabaya"
960,960,Giat Jaya Bengkel,,031 3550084,"Jl Krembangan Buyut 24, Surabaya"
961,961,Elvia Engineering Ud,,031 8438910,"Jl Rungkut Industri Xi/3, Surabaya"
962,962,Tjokro Bersaudara,,031 3713884,"Jl Gembong Tebasan 17-19, Surabaya"
963,963,Service Manyar,,031 5994500,"Jl Manyar Kertoarjo Xiii/27, Surabaya"
964,964,Mikronika International,mangkuluhur88@.......com,031 8534171,"Jl Ngingas Slt 14 A, Surabaya"
965,965,Jaya Tehnik,,031 7316179,"Jl Simo Tambaan Sekolah 2, Surabaya"
966,966,Kedung Ratu,,031 3551281,"Jl Kemayoran Baru 29, Surabaya"
967,967,Citra Persada,,031 8540776,"Jl Brigjen Katamso 245, Surabaya"
968,968,Apie Indo Karunia Pt,,031 3714672,"Jl Kalilom Baru I/16-21, Surabaya"
969,969,Aneka Teknik Cv,,031 7483164,"Jl Margomulyo Indah F/9, Surabaya"
970,970,Bersaudara Bengkel,,031 3520957,"Jl Kemayoran Baru 19-21, Surabaya"
971,971,Anugerah,,031 3552171,"Jl Sabang 3, Surabaya"
972,972,Saudara Jaya Service,,061 7355845,"Jl Rahmadsyah 52/62, Medan"
973,973,Lico Aneka Machinery Pt,,031 8713711,"Jl Raya Rungkut Madya Rk Ii A/31, Surabaya"
974,974,Arta Triguna Bengkel,,031 5685146,"Jl Raya Dukuh Kupang Brt 54-A, Surabaya"
975,975,Surya Teknik Pratama Bengkel,,031 7670688,"Jl Mastrip Kemlaten 90, Surabaya"
976,976,Loe Kam Bengkel,,031 8431962,"Jl Berbek Industri Ii/23, Surabaya"
977,977,Buana Optimal Engine Nasional Cv,,031 3715889,"Jl Pogot 92, Surabaya"
978,978,Armada Pasific,,031 7492347,"Jl Gresik 249, Surabaya"
979,979,Andrian Cycles,,061 77575402,"Jl. Setia Budi No 205, Medan North Sumatra, 20312"
980,980,BursaKursiKantor.Com,,021 95378910,"mangga 15 T 584 Kepa duri, Jakarta Jakarta, 11510"
981,981,PT. Nippon Freight Logistics,,021 34831855,"Jl. Ir. H. Juanda No. 28-29 B, Jakarta Pusat Jakarta, 10120"
982,982,CV. UNITED MULTI ORDER INDONESIA,,021 88956503,"Jl.Kh.Mochtar Tabrani, Perwira Blok A16 No.1, Bekasi West Java, 17122"
983,983,Citra Textile,nippon.jkt@.......com,0341 328257,"Jl Syarif Alqodri 12A, Malang East Java, 65117"
984,984,Axsimart,store@.......com,0817-6631-583,
985,985,Distributor Alat Berat China - LonKing,marketing@.......com,0813-2807-1606,"Jakarta, Jakarta barat Jakarta, 12000"
986,986,JMB FORKLIFT,,0852-1030-3722,"Jl.Adiyaksa Raya No.01 Lebak Bulus, Jakarta Jakarta, 12440"
987,987,CV. Panca Logam Teknik,cv.pantech@.......co.id,0858-4200-1500,"Desa Lemahduwur No 13 Rt 08 / 02 Adiwerna Tegal, Tegal Central Java, 52194"
988,988,Milano Motor Service,info@.......com,021 6393325,"Jl Perniagaan 97, Jakarta"
989,989,Suzuki Motor Sales Ud,,031 5341167,"Jl Undaan Wetan 88, Surabaya"
990,990,Indo Aneka Motor,,021 92575340,"Jl. Abdul Safei, Manggarai, Jakarta Selatan, Jakarta selatan Jakarta, 12860"
991,991,Majubersama Surya Indah Motor,motor.montrada@.......com,0815-8861-053,"Jl. Kamal Muara IX No.5, Kamal Muara, Penjaringan - Jakarta Utara, Jakarta Jakarta, 14470"
992,992,Budi Jaya Motor,budijaya2010@.......com,,"Jl. Kolonel Sugiono, Jakarta Timur Jakarta, 13930"
993,993,Utama GlobalIndo Cargo,admin@.......com,,"Jl.pancoran timur 3 no.1A, Jakarta Jakarta, 12780"
994,994,China Karo Molding Company,karomolding@.......com,0851-0141-0425,"PERUM PONDOK SEDATI ASRI Blok K-14 Jl, Sidoarjo East Java, 61211"
995,995,China Topper Plastic Molding Company,indo_aneka@.......com,,"Jl. K.H. Ali Maksum 18 Panggungharjo, Sewon, Bantul, Yogyakarta 55188, Yogyakarta, Yogyakarta Yogyakarta, 55188"
996,996,"EX Plastic Mould Co., Ltd.",sales@.......com,,"duren jaya permai jl kanon blok e1 no 11, bekasi West Java, 17111"
997,997,Jazzmine Gallery,citra_tex@.......com,0627 11445258,
998,998,Takumi Sakti,,021 65831222,
999,999,And Carita Recreation Park To,tampubolonbudiman@.......com,021 99208186,
1000,1000,SECURE PARKING,secure@.......co.id,021 6265868,"Komplek Mangga Dua Mas Blok A no 11-12, Jakarta Jakarta, 10730"
1001,1001,DX2 Fashion : www.dx2fashion.com,info@.......com,0815-7417-1778,"ITC Mangga Dua Lantai 5 Blok A No. 167 Jakarta Indonesia, Jakarta Jakarta, 11510"
1002,1002,PT. FPS Indonesia,info@.......com,021 42800909,"GRAHA ISKA 165, Jakarta Pusat Jakarta, 10570"
1003,1003,CITRA VALET PARKING SERVICE,,0815-1467-1467,"JL. DJUNJUNGAN, Bandung East Java, 40173"
1004,1004,Kiyokuni Indonesia,......enquiries@.......co.uk,0622 18970721,"EJIP Industrial Park, Bekasi West Java, 17550"
1005,1005,Bakti Engineering,,061 7346921,"Jl Rahmadsyah 36, Medan"
1006,1006,PT. Induro Internasional,pras.lonking@.......com,021 5902211,"Jl. Raya Pasar Kemis Cikupa Tangerang- Banten 15560 INDONESIA, Tangerang Banten, 15560"
1007,1007,ANEKA SERVICE SINDO,assass_2011444@.......co.id,,"JEMBATAN 1HARCO MAS MANGGA DUA LT.2 NO.25, Jakarta East Java, 10730"
1008,1008,Semeru Bike Center,,0623 41323236,"JL. Kaliurang No. 1, Malang East Java, 65111"
1009,1009,Indo Teknik Traktor,plastic-mold@.......com,061 7346179,"Jl. Rahmadsyah No.32, Medan North Sumatra, 20215"
1010,1010,PT. ADHI JAYA PRATAMA,pratamapt.adhijaya@.......co.id,021 44715212,"Jln. Raya Cakung Cilincing, Jakarta Utara Jakarta, 14320"
1011,1011,Global Tehnik - Gas & Diesel Generating Set,export.cs@.......net.id,0812-1808-0220,"Villa Mellia Blok A2 / 11 Gunung Sindur Bogor, Bogor, Jawa Barat"
1012,1012,Beckhoff Automation Pte. Ltd.,,021 22127044,"5 Jalan Panjang, Kota Jakarta Barat Jakarta, 11530"
1013,1013,88Office,contact@.......com,021 29631688,"Jl. Raya Casablanca Kav.88, Jakarta Jakarta, 12870"
1014,1014,CEO SUITE WISMA GKBI JAKARTA,indoktekniktraktor@.......com,021 57998000,"Wisma GKBI 39th Floor, Jakarta Jakarta, 10210"
1015,1015,Folindo Sendiri Kuningan Di Produksi Kebanyakan Untuk Part Pompa Air,info@.......com,0622 66240181,
1016,1016,"Timezone Grand Mall Solo - Arcade Games, Bowling, Kids Birthday Party Venue",cs@.......co.id,+62 271 725111,"273 Slamet Riyadi St, Kota Surakarta Jawa Tengah, 57141"
1017,1017,"Timezone Lippo Mall Kemang - Arcade Games, Kids Birthday Party Venue, Bowling",,021 29056762,"Jalan Kemang VI, Kota Jakarta Selatan Daerah Khusus Ibukota Jakarta, 12730"
1018,1018,"Timezone Medan Fair Lt. 1 - Arcade Games, Kids Birthday Party Venue",,061 4140230,"30 Jalan Gatot Subroto, Kota Medan Sumatera Utara, 20111"
1019,1019,"Timezone Cibubur Junction - Arcade Games, Kids Birthday Party Venue, Win Prizes",,021 87756530,"1 Jalan Jambore, Kota Jakarta Timur Daerah Khusus Ibukota Jakarta, 13720"
1020,1020,PT. MEKASINDO DHARMA,mgrgkbi@.......com,021 70418704,"Head Office And Workshop : Cilandak Commercial Estate #109 Jln. Cilandak KKO Ja, Jakarta Jakarta, 12560"
1021,1021,PT DUTA BINA PERTIWI,sales@.......co.id,,"HARAPAN INDAH RAYA NO 2, Bekasi Jakarta, 17132"
1022,1022,Battery Indonesia,citravaletparkingservice@.......com,0623 15025823,"Jl Ngagel Jaya Selatan III No 7, Surabaya East Java, 60283"
1023,1023,Aisi,ptmakasindodharma@.......co.id,0622 18566181,"Wisma Indomobil 1, Jakarta Jakarta, 13330"
1024,1024,Kontes SEO,diena0002@.......com,0819-0508-8135,"Cindaga, Banyumas Central Java, 53172"
1025,1025,BENGKEL SENDJA MOTOR,,021 92033351,"Jl. Karang Tengah Raya No. 10 Lebak Bulus, Jakarta Selatan Jakarta, 12430"
1026,1026,defas adipura bersama,service_genset@.......com,0812-9171-6636,"Jalan baru pinang kunciran No 168h-i, tangerang Banten, 15144"
1027,1027,H2S Computer,central@.......co.id,0628 13529135,"Surabaya East Java, 60000"
1028,1028,autobodypartsonline,,,"Jalan H.R. Rasuna Said Kav.S-1, Kuningan, Jakarta, 12950"
1029,1029,Mastrada Surya Pt,her.culez@.......com,031 5458802,"Jl Kusuma Bangsa 15, Surabaya"
1030,1030,HOME BIKES,carbattery@.......com,0856-5858-1120,"Jl. H. akbar no. 37. Kebon Kawung, Bandung Yogyakarta, 22245"
1031,1031,HOME BIKES,store@.......com,0856-5858-1120,"Jl. H. akbar no. 37. Kebon Kawung, Bandung Jakarta, 22245"
1032,1032,Store Bikes,felbetas@.......com,0628 14555789,"Jl Dasuki Jaya 58, Jatibarang West Java, 45278"
1033,1033,SOLID BIKE,feversam2002@.......com,0853-6212-9990,"Jl Dasuki Jaya 108, Jatibarang Jawa Barat 45273, Bandung West Java, 45273"
1034,1034,Matahatikita,info@.......com,0813-4029-8968,"Jl Yusuf Hasiru I/71 Belakang Lawangirung Lingkungan I, Kec Wenang Manado North Sulawesi, 95123"
1035,1035,POWER EXPRES INDONESIA,power_sby@.......com,031 81481818,"Surabaya East Java, 60118"
1036,1036,Indoserver,......@.......or.id,0812-1243-787,
1037,1037,Legalo Virtual Office Jakarta,store@.......com,021 80674900,"LEGALO 18 Office Park, Lt.10 Unit A Jl. Jalan Tahi Bonar Simatupang No.18, Jakarta Selatan, DKI Jaka, Jakarta Jakarta, 12520"
1038,1038,Ag Bali Car Rental,,0361 7492090,
1039,1039,Lpt Tangkahan,info@.......com,0813-6142-3245,
1040,1040,Gorinjani,info@.......id,0370 692179,
1041,1041,Safari Park Lodge,dupersolpetro@.......com,0623 61721480,
1042,1042,Bukit Lawang Accommodation,,0813-7009-3597,
1043,1043,Fashionsonder - Cheap Workout Clothes,store@.......com,,"213 ave., Maharashtra, Maluku 400013"
1044,1044,Sexy Kiosk,,061 4527226,"JL. Merak Jingga No. 20, Medan North Sumatra, 20111"
1045,1045,CV.MAJU KRISINDO MANDIRI,info@.......com,021 88879817,"Gedung IS PLAZA Lt.7,Jl.Pramuka raya Kav.12.5, Jakarta Timur Jakarta, 13210"
1046,1046,PT. Gaya Makmur Tractors,storebikescs@.......com,0878-7603-2621,"JL.Lingkar Luar BArat No. 3 RawaBuaya-Cengkareng, jakarta Jakarta, 11740"
1047,1047,Karunia Motor Service Station,,031 8411884,"Jl Raya Kendangsari Industri 29, Surabaya"
1048,1048,Jaya teknik Engineering,samuel_gmt@.......com,,"Jl. Darussalam, Komplek Griya Indah No.18, Tangerang Banten, 15147"
1049,1049,servicelcdproyektor.com,servicelampuprojector@.......com,021 96180543,"mangga dua square Lt.1 Blok A No.35, Jakarta utara Jakarta, 11420"
1050,1050,SINAR GEMILANG,sales@.......co.id,021 6280917,"PERTOKOAN GLODOK HWI LANTAI DASAR BLOK D NO.30 JAKARTA-INDONESIA, JAKARTA BARAT Jakarta, 11120"
1051,1051,Lautan Makmur,info@.......com,0622 16286066,"Lindeteves Trade Center floor GF2 Blok B15 no 8, Jakarta Jakarta, 11110"
1052,1052,Doctor Accu,anthony@.......com,021 3841515,"Jl Cideng Barat 51, Jakarta Jakarta, 10250"
1053,1053,Induro,cv-majukrisindomandiri@.......com,0622 15902211,
1054,1054,"Timezone Grage Mall Cirebon - Arcade Games, Kids Birthday Party Venue, Win Prizes",,0231 222994,"Jalan Doktor Cipto Mangunkusumo, Kota Cirebon Jawa Barat, 45123"
1055,1055,Bali Furniture Living,info@.......com,0811-3801-716,
1056,1056,My Ruko,afuk@.......com,0815-8531-8908,"Gg Babakan Peundeuy No 5,, 16143"
1057,1057,CV. TAUFIK HANAFI,me@.......web.id,031 70590925,"Taman Sidorejo C-09, Sidoarjo East Java, 61262"
1058,1058,Mitra Handal Dinamika,admin@.......com,0778 5170088,"Ruko Taman Niaga Blok L No2, Batam Riau Islands, 29432"
1059,1059,Multipart Asia Perkasa,metalwork234@.......co.id,021 62320759,"Lindetevest Trade Center (LTC Glodok), DKI Jakarta, 11180"
1060,1060,Expertindo Muliasistema,jayateknikengineering@.......co.id,0622 17664829,"Jl Wijaya Kusuma No 17, Jakarta Selatan Jakarta, 12450"
1061,1061,Vacation Indonesia Tours,marketing@.......com,0813-4121-7751,"RT001 RW006 Kalukubula - Kecamatan Biromaru-Kabupaten Sigi - Provinsi,, 94364"
1062,1062,Krakatau Holiday,marketing@.......com,0622 53808242,"Jl Raya Carita Km09 Labuan, Pandeglang BANTEN, 42264"
1063,1063,Jimbaran Home Stay Bali,mitrahandal@.......com,0821-4757-2550,"JALAN BUKIT HIJAU KAV NO3,, 80361"
1064,1064,Krakatauujungkulontours,apud.carita73@.......com,0622 53801808,"Raya Carita Km 12, Carita beach Banten, 42264"
1065,1065,Openmadiun,info@.......com,0351 454804,"Jl Ki Ageng Selo no 12, Madiun East Java, 63118"
1066,1066,Park View Heights,map@.......com,0361 8057108,"Jl Dharmawangsa No 168, Nusa Dua Hills Bali, 80361"
1067,1067,UNLOGIC Online Stuff,lautan.makmur@.......com,0857-2055-1116,"Bojongsoang, Bandung West Java, 40288"
1068,1068,Gunung Selamat,,021 6394021,"Jl Sukarjo Wiryopranoto 85, Jakarta"
1069,1069,Mikro Supplies,jimbaranhomestaybali@.......com,021 46421902,"Nomor 551 / 1824/TA/XI/2010, No PEM, 01131"
1070,1070,PT. WIKA KARYA PERSADA,seloka@.......com,021 49555637,"JLN. RAYA GEBANG KM.21 No.20 PULO GEBANG JAKARTA UTARA, Cakung Cilincing Jakarta, 13950"
1071,1071,"Mitra Usaha Powerindo, PT",wikakaryapersada50@.......com,021 62305460,"Jl. Taman Sari VIII No. 14 C, Jakarta Barat Jakarta, 11111"
1072,1072,Citra Solution,,021 6129237,"Harco Mangga Dua Blok B II No 128A, Jakarta Pusat Jakarta, 10730"
1073,1073,Rutan,marketing@.......com,0812-3003-628,"JI Ikan dorang 7, Surabaya East Java, 60177"
1074,1074,Aston Shopping Arcade,service@.......com,0361 411999,"Jl. Gatot Subroto Barat 283, Denpasar Bali, 80361"
1075,1075,Kurnia Jaya Engineering,unlogicshop@.......coim,0622 18486020,
1076,1076,Pelabuhan Indonesia I Pt Persero,,061 6610220,"Jl Krakatau Ujung 100, Medan"
1077,1077,Pelabuhan Indonesia I Pt Persero,info@.......com,061 6941919,"Jl Sumatera 1 Blw, Medan"
1078,1078,Bali Rock,citra_solution@.......co.id,0623 61754466,
1079,1079,Unit Usaha Terminal Peti Kemas,parkviewheightsbali@.......com,061 6940032,"Jl Raya Pelabuhan Blw, Medan"
1080,1080,Climb-rinjani,info@.......com,0370 692179,
1081,1081,Bali Safari,info@.......com,0623 61751300,"Km 19, Gianyar, 80551"
1082,1082,Rinjani Tours And Travel,,0370 6686625,
1083,1083,Pusat Grosir Mukena Online Tanah Abang Cabang Pgc,info@.......com,0813-9939-7171,
1084,1084,Pelabuhan Indonesia Iii Pt Persero,tenantmanager@.......com,031 3293052,"Jl Tj Perak Tmr 620, Surabaya"
1085,1085,backlight production,sales.mup@.......com,0857-1980-0131,"jl. pulosirih boulevard raya bok BD 131A Grand Galaxy City Bekasi, Bekasi Jakarta, 11730"
1086,1086,butikmanis.blogspot.com,tokovinafc@.......com,0857-3126-8984,"Ikan Sumbal no. 32 Perak Barat, Surabaya East Java, 60177"
1087,1087,Pompa Electronic Print Head,firmandasaputra@.......com,0857-6520-1183,"Jl. Veteran Selatan II 205-E Mamajang Dalam, Makassar South Sulawesi, 90135"
1088,1088,Honda Bintaro,pompaelectronic@.......com,021 7457231,"Cbd 03&amp;05 Blok A2 Sektor Vii, Bintaro Banten, 15224"
1089,1089,ADI JAYA CARGO,gpp@.......com,0823-2421-0001,"Jl. kalilarangan no.5, jayengan, surakarta, Surakarta, jawa tengah 57115"
1090,1090,quanesha.com,cs_quanesha@.......com,0812-3377-9889,"Permata Jingga Blok BB 46 No 28, Malang East Java, 65143"
1091,1091,PT.WIJAYA MEGAH SARANA,ptwms.equipment@.......com,0551 216091,"Jln. Yos Sudarso Rt.29 No. 2 Kalimantan Timur 77113 Tarakan, Kalimantan Timur Tarakan Kalimantan Timur, 77113"
1092,1092,CV.WIRA MANDIRI UTAMA,info@.......co.id,,jalan andara raya no 9 pondok labu cilandak jakarta selatan 12450 jalan bidara raya no 36 jakarta utara 14440
1093,1093,Honda,info@.......net,,"Jalan Tembus Pal 6 Pramuka, Banjarmasin South Kalimantan, 70653"
1094,1094,"Istora Sports Co., Ltd",istorasports@.......com,0361 8728900,"Jl Letda Made Putra Pert Kartika Udayana 5-A, Denpasar Bali, 80112"
1095,1095,BikersPit Inc,adijayacargo@.......com,,"Bikerspit Avenue, Jakarta Jakarta, 16418"
1096,1096,MOTORKITA,sugengmotorkita@.......com,0622 17710665,"Jl . Tole Iskandar Ruko Mutiara No 5, Depok East Java, 16415"
1097,1097,Spektris,,0622 13848884,"Tanah Abang I-12 D, Jakarta Jakarta, 10160"
1098,1098,Mahacon Nusantara,,021 79181855,
1099,1099,"Timezone Mall Seraya Ciputra Pekan Baru - Arcade Games, Kids Birthday Party Venue, Win Prizes",,0761 868868,"58 Jalan Riau, Pekanbaru City Riau, 28155"
1100,1100,Sumatra Ecotravel,sales.support@.......com,0813-7089-5186,
1101,1101,Almairafashion,fredylesmana33@.......com,0361 8513161,
1102,1102,Kupukupugarden.bukitlawang,almairafashion@.......com,0821-6305-6029,
1103,1103,Expedition Jungle,info@.......com,0813-7060-7035,"Dusun 1 Bukit Lawang, Kab Langkat North Sumatra, 20774"
1104,1104,JILBAB DAN AKSESORIS SILVERWIDI,,0857-4563-0950,"JALAN TENGGER RAYA BLOK 58, SURABAYA West Java, 60185"
1105,1105,PT.TRANCE FREIGHT LOGISTICS,info@.......com,021 40989780,"JL.RAYA CILINCING NO.8D, JAKARTA UTARA Jakarta, 14320"
1106,1106,China Topper Aluminum Alloy Die Casting Company,aluminumdiecast@.......com,,"\tJL.Achmad yani, kuripan Purwodadi, Purwodadigrobogan Central Java, 58111"
1107,1107,Fineks Utama Certified Of Part 145 Of Casr Amo Approval From The Directora,james@.......com,021 57903690,"Blok X-5,, 12950"
1108,1108,Elephant Safari Park Lodge,info@.......com,0623 61721480,
1109,1109,JAXenter,admin@.......com,0811-889-986,
1110,1110,Puncak Kemenangan Abadi Jaya Pt,sales@.......com,031 5679968,"Jl Kol Abd Wahab Siamin Ruko Villa Bukit Mas Bl Rc/22, Surabaya"
1111,1111,Anugerah Tricomindo Motor,maywijay@.......co,021 30118879,"Kebon Jeruk III No.24-26, Jakarta Jakarta, 10110"
1112,1112,Skateboard,lestari@.......com,0628 16200020,
1113,1113,hot-cycles.com,store.hotcycles@.......com,061 91100197,"Jalan setia budi 115 Medan, Medan North Sumatra, 20135"
1114,1114,CV.JAYATAMA LOGAM,,,"JL. INDUSTRI DS.LEMAHDUWUR NO.59 RT/RW 04/01 KEC.ADIWERNA-KAB.TEGAL, Tegal Central Java, 52194"
1115,1115,Legian Bed & Breakfast,info@.......com,,
1116,1116,Sman 1 Pare,trance.cargo@.......com,0354 391132,"SMA Negeri 1 Pare, KEDIRI East Java, 64212"
1117,1117,Partigroup,info@.......com,0622 18300669,"Jl DR Saharjo No 96-G, Jakarta Jakarta, 12960"
1118,1118,Pita,,0857-2277-7366,
1119,1119,Japan Softlens,,0818-0790-9033,"MH Thamrin No.1, Jakarta, Indonesia 10310"
1120,1120,cv.jaya traktor perkasa,,0853-1891-7609,"jln.H.mansyur rt.05/02 no.10B cipondoh, Tangerang Jakarta, 15147"
1121,1121,Mentari Autoparts,info@.......com,021 43909082,"Jl. Enggano Raya - Ruko Enggano Megah Blok A No. 5Z, Tanjung Priok Jakarta, 14310"
1122,1122,PACIFIC BAHARI BALI (www.pacificbaharibali.com),jilbabdanaksesorissilverwidi@.......co.id,0361 9041868,"Jln.Pratama No.98 Tanjung Benoa, Nusa Dua Bali, 8000"
1123,1123,SUZUKI SUBUR MOTOR,cendana_living@.......com,0878-8288-2935,"JL. RAYA INDUSTRI TEGAL GEDE NO. 01 PASIRSARI, CIKARANG SELATAN, BEKASI West Java, 17330"
1124,1124,MANDIRI JAYA MEDIKA,budievolution@.......com,0622 17254066,"Jl. Fatmawati Raya, Jakarta Jakarta, 12150"
1125,1125,Sanal Exports,sanal@.......vsnl.net.in,,"jakarta, Jakarta Jakarta, 110006"
1126,1126,Duniahosting,rebeccazenit@.......com,021 5388439,
1127,1127,Junying Die Casting Company Limited,diecastingcompany@.......com,,"jl. sidotopo kidul no.11-15 surabaya, Surabaya East Java, 60152"
1128,1128,"Pembantu, babysitter rumah tangga",info@.......com,0821-7761-1005,"Jalan Brig Hassan Kasim Complex Grand Garden Blok J No. 10, palembang South Sumatra, 30961"
1129,1129,MULIA FORKLIFT,lia.naomi70@.......com,0878-7859-7031,"JL CABE 5 PONDOK CABE ILIR, BANTEN Banten, 15418"
1130,1130,PT JAGORAWI MOTOR,kupukupugarden.bukitlawang@.......com,0819-9533-7417,"JL RAYA KOBA, Pangkalpinang Bangka-Belitung, 33123"
1131,1131,Griya sulam pita Hafiza,ammarwijayakhan@.......com,0857-3040-0220,"Bulak Rukem Timur 1k no 1, Surabaya East Java, 60124"
1132,1132,"Junying Die Casting Co.,Ltd",info@.......sch.id,0817-0612-328,"JL.Achmad yani, kuripan Purwodadi, Purwodadigrobogan 58111, Central Java, Purwodadigrobogan Central Java, 58111"
1133,1133,AUTOLUBE; AUTOLUBRICATION,arif@.......com,021 71018911,"jl.H.Muchtar Raya No.78 A petukangan utara pesanggrahan, Jakarta selatan Jakarta, 12260"
1134,1134,Sepeda Motor Injeksi Irit Harga Terbaik Cuma Honda,jualkaligrafionline@.......com,0857-3054-7979,"Jombang, Jombang East Java, 61412"
1135,1135,Toko Online Jilbab Murah,mentari.autoparts@.......com,0815-1935-7536,
1136,1136,Rumahtaziek,cv.jayatraktorperkasa@.......com,0813-2078-6909,"Rt 03/08,, 40135"
1137,1137,Kawah Ijen,,031 71333533,"Darmo Trade Center A/K 168-169, Surabaya East Java, 60181"
1138,1138,Butik Manis,maywijay@.......co.id,0813-3181-6768,"Jl. Ikan Sumbal no. 32 Perak Barat, Surabaya East Java, 60177"
1139,1139,SPOORINDO-TOURS,diecasting@.......com,0856-4380-4242,"Brontokusuman Mg 3 / no: 345, Yogyakarta Yogyakarta, 55153"
1140,1140,Mira Adiguna Cv,info@.......com,031 7888482,"Jl Raya Taman Gg Dpu Rt 06/01, Surabaya"
1141,1141,Creator Machinery Component Manufacturer,creator@.......com,0623 61241955,"Jalan Teuku Umar, Kota Denpasa Bali, 80114"
1142,1142,Nexis Data Center,dahlia_liana17@.......com,021 52900200,"Jl Jend Gatot Soebroto Kav 32-34, Jakarta, 12960"
1143,1143,Warna Media Tech,,,"Cileduk Raya No.3, Tangerang Jakarta Raya"
1144,1144,PT. PANCA WAHYU NUGROHO,panca_inforental@.......co.id,021 4110633,"Pulo Gadung Trade Center PTC Block 8-B, Jakarta Timur Jakarta, 13920"
1145,1145,CV. Zhahir Engineering,,,"Perum. Puri Indah Blok HH-30, Sidoarjo East Java, 61211"
1146,1146,Pintu Garasi,rumahtaziek@.......com,,"Rawa Lele, Tangerang Banten, 15157"
1147,1147,Service Material Handling,liftcoservicecenter@.......com,021 5399580,"Komplek Pergudangan Multiguna Jl. Raya Serpong Km.7 Blok B/8 Tangerang 15310, Banten Indonesia, Tangerang Banten, 15310"
1148,1148, SUMBER UTAMA DIESEL - Specialist in Diesel Genset & AMF ATS Panel,,,"No. 2705 Jl. Raya Kembangan No.10 Kembangan Utara Jakarta Barat, Jakarta, 11000"
1149,1149,yudishop,pintugarasiwina@.......com,0857-9505-4827,"Baleendah, Bandung West Java, 40375"
1150,1150,Wooden Dummy E.l.i,,0628 16678567,
1151,1151,Belajar Bahasa Inggris,info@.......com,0818-0279-1811,"Jalan nakula Yogyakarta, Yogyakarta Yogyakarta, 52341"
1152,1152,Lembeh Hills,info@.......com,0438 2239295,
1153,1153,Mara River Safari Lodge,ryansabastian@.......com,0623 61950000,"Jl Bypass Prof Dr Ida Bagus Mantra Km 19, Gianyar, 80551"
1154,1154,Shinta Collection,iswah1982@.......com,024 70426826,"Jl Taman Jembawan no 16,, 50145"
1155,1155,Lombok Vacation,info@.......co.id,0819-3316-1856,
1156,1156,The Nomad Offices,reservation@.......com,021 30048000,"Level 16, Jalan P Ramlee, 50250"
1157,1157,"MIER SPORTS CO., LTD",info@.......com,0812-6514-9168,"Indooptics Jl. Gajah Mada No.28-C, Sumatera Utara Medan, Indonesia"
1158,1158,PT.KAMASA JAYA ABADI,service@.......com,021 80875794,"MIRADZ GRAHA LT3 / C2, Jakarta Timur Jakarta, 13630"
1159,1159,Wasage Divers,pt.kamasajaya@.......com,0815-2477-8841,"Jln Rusa No 4, Bau-Bau South East Sulawesi, 93716"
1160,1160,SAKKA d'Sign,sakkamoslem@.......com,0878-7875-0058,"Jl.Cempaka Wangi I No. 20, Jakarta Pusat Jakarta, 10640"
1161,1161,Krista Group,info@.......com,0878-5700-5087,"Jalan Bromo 29 Genteng Banyuwangi JawaTimur, Genteng-Banyuwangi East Java, 68465"
1162,1162,PT.ADHI PERSADA,kristagroup@.......co.id,031 7314308,"Jl.Simpang Darmo Permai Selatan No. 93 Surabaya 60216 Jawa Timur, Surabaya East Java, 60216"
1163,1163,KIKIM VARIASI MOBIL,,0822-4182-2016,"Jalan Parangtritis, Kabupaten Bantul Yogyakarta, 55188"
1164,1164,PONT CYCLES ( www.point-cycles.com ),pt.adhipersada@.......com,0853-6181-6766,"Jl Jend Gatot Subroto 30 Plaza Medan Fair Lt 1 68/70,Petisah Tengah,Medan P MEDAN, Medan North Sumatra, 20312"
1165,1165,Wiratama Mitra Abadi,sales@.......com,0851-0071-1033,"Dewi Kunti II No. 2 BSK, Bekasi West Java, 17144"
1166,1166,PT. SInar Amity Perkasa,sales@.......com,021 46249602,"Jl. Raya Pegangsaan Dua Km 1,2 No. 10-11, Kelapa Gading Jakarta 14250, Jakarta Jakarta, 14250"
1167,1167,Mami Berlian Agency,,0812-5298-1527,"Semolowaru Elok F-20 Kelurahan Semolowaru Kecamatan Sukolilo, Surabaya, Indonesia 60119"
1168,1168,Yogya Tours,pointcycles@.......com,0877-3930-9090,
1169,1169,Nucira,,021 8292122,
1170,1170,Krakatoa Tour,,0852-1644-8250,"Jl Raya Labuan Km 10, Carita Beach Banten, 42264"
1171,1171,JILBAB NURANI,padlan@.......nucira.com,0812-3375-0065,"Jln Arjuna II No.6 Triwung Lor - Probolinggo, Probolinggo East Java, 67222"
1172,1172,MennaSa.Com,jilbabkerudung1@.......com,0813-1751-0157,"Jl Satria V No 44B, Jakarta Barat Jakarta, 11460"
1173,1173,The Peacock Hospitality Valet Parking Service,mennasa_toko_online@.......com,021 32267711,"Komplek Ruko Ciputat Center, Tangerang Selatan Banten, 15411"
1174,1174,BALCON PRIMA INTERNUSA,citravaletparkingservice@.......com,0815-1467-1467,"JL. BEKASI TIMUR VI NO. 18, JATINEGARA, JAKARTA TIMUR Jakarta, 13410"
1175,1175,daging sapi lokal,ptsinaramity@.......com,021 99375369,"latiefaryawijaya@yahoo.com, Jakarta timur Jakarta, 13260"
1176,1176,CV. Winson Persada,satusatuselaras@.......co.id,0858-5290-2084,"Pandaan Pasuruan Jawa Timur, Pasuruan East Java, 67156"
1177,1177,Hot Bits Indonesia,,021 68997150,"Jl.Kebon Raya 103, Jakarta Barat Jakarta Raya, 11510"
1178,1178,Is Owned By,sales.kualalumpur@.......com,,
1179,1179,ZenNoss Security & Electrical,javacances@.......com,,"Kebon jeruk 11 no 11a, Jakarta Jakarta, 11160"
1180,1180,Winstar Security System,,0626 14142355,"Jl Wahidin No 9-B, (Simp Jalan Kalimantan) North Sumatra, 20211"
1181,1181,Lpk Cinta Keluarga,ud@.......96.lt,0815-4251-8883,"&quot;Ruko Siliwangi Square&quot; Jl. Puspowarno Tengah 1 No. 2 B, Semarang Central Java, 50143"
1182,1182,Development Division Of Cita Travel Service,cinta.keluarga123@.......com,0813-3899-4444,
1183,1183,suka,,0818-0877-5310,"Jl Pondok Baru 3 No 24 C Cijantung, Jakarta Timur Jakarta, 13770"
1184,1184,SASANTI RESTAURANT,sasantirestaurant@.......com,0274 8539300,"Jl Palagan Tentara Pelajar no 52a Jogjakarta, Jogjakarta Yogyakarta, 55581"
1185,1185,Belle Shop,belleshop25@.......com,0852-3908-0289,"Jl.Palem no.21 Kecamatan Maulafa, Kupang East Nusa Tenggara, 85000"
1186,1186,Fastfood Indonesia,,,
1187,1187,Atria Asta Megatama,service_genset@.......com,021 70074682,"Jl. Legenda Mustika Jaya (Dukuh Bima) Bekasi, Bekasi West Java, 17158"
1188,1188,Duta Putra Sumatera Pt,info@.......com,061 6618780,"Jl H Adam Malik 101, Medan"
1189,1189,PT. Vanlee Abadi Niaga,,0878-8877-4737,"18 Jalan Pendidikan, Kabupaten Bogor West Java, 16340"
1190,1190,OUR EXPRESS YOGYAKARTA,,,"Jl. Soga No. 61 Kelurahan Tahunan, Kec. Umbulharjo Yogyakarta - 55222, Yogyakarta Yogyakarta, 55223"
1191,1191,Landee Blind Flange Supplier,,0361 7950708,"Jalan Wenara Wana, Ubud Bali, 80571"
1192,1192,ABC Motor,atriaastamegatama@.......com,0542 424198,"Jalan Jendral Sudirman No. 686, Balikpapan East Kalimantan, 76114"
1193,1193,Wavepark,peter@.......com,0812-6635-551,"Jalan Perak III No 18, West Sumatra West Sumatra, 25112"
1194,1194,Park Center Pulomas,winsonpersada@.......com,,"Jl. Perintis Kemerdekaan, Jakarta Jakarta, 14120"
1195,1195,Radina Jilbab,peterson_gui@.......com,0811-174-322,"Ciganjur, Ciganjur Jakarta, 12610"
1196,1196,Willindo,email@.......com,0622 16327575,"JL Kyai Haji Mohammad Mansyur No 119A, Jakarta Barat Jakarta, 11270"
1197,1197,List Harga Sewa Alat,,0822-6727-3772,"+6282267273772 Jl. Arjuno No.78B, Sawahan, Sawahan, Kota SBY, Jawa Timur 60251 Sawahan, Kota SBY, Jawa Timur 60251, AGISTA TRI PRADANA Surabaya, East Java 60251"
1198,1198,Harga Sewa Alat Berat,mia.wijayanti@.......com,0822-9948-5044,"Jl. A. Yani Km 22 Rt. 09 - Rw. 03, Landasan Ulin, Banjarbaru East Kalimantan, 70724"
1199,1199,Agen Abon Sapi Asli,radinajilbab@.......com,0816-1870-597,
1200,1200,Biro perjalanan dan wisata,,0822-8282-0818,"Gedung The Habibie Center Lantai 3 Jl. Kemang Sel. No.98, RT.11/RW.4, Cilandak Tim., Kec. Ps. Minggu, Jakarta Selatan DKI Jakarta, Indonesia 12560"
1201,1201,TokoKerudungOnline.com,ops.ourexpress@.......com,0856-9916-869,"Melati Regency Blok C15/24, Tangerang Banten, 15318"
1202,1202,Alam Raya Bengkel,,031 3812513,"Jl Kedung Cowek 86 B, Surabaya"
1203,1203,PT. TRANS SEGARA MITRA UTAMA,transs.mitrautama@.......com,021 86616295,"Jl. I. Gusti Ngurah Rai, Jakarta Timur Jakarta, 13470"
1204,1204,jus manggis herbal,arisdemak99@.......com,0877-8265-5588,"jl.buncit raya pulo no.529, Jakarta Jakarta, 12000"
1205,1205,Special Interest Tour,wavepark.resort@.......com,0361 9622047,
1206,1206,Lombok Information,info.agista.pt@.......com,0812-3947-6651,"Jl Barakuda No 10, West Lombok, 83355"
1207,1207,Terra Cristal Tours & Travel,info@.......com,0852-9625-8181,"Jl. Iskandarmuda No.3C, Punge Jurong, Banda Aceh, Bandaaceh Nanggroe Aceh Darussalam, 23234"
1208,1208,Adyawinsa,fmaxalmina@.......com,,"Jababeka IV Block V No 81A-B, Bekasi, 17530"
1209,1209,TIO JAYA MOTOR TOKO,info@.......com,0899-8197-994,"SITU GEDE I NO 22 RT 6/12, JAKARTA TIMUR Jakarta, 13720"
1210,1210,Dealer Motor Honda Jakarta Tangerang,maximus@.......com,021 5454486,"Cengkareng Jakarta, 11730"
1211,1211,Jaya Karta Machine,zennoss99@.......com,,"Jl. Gatot Subroto 36, Bandung West Java, 40284"
1212,1212,Alisindo Multitehnik,,0626 14142355,
1213,1213,Cahaya Bintang Engineering,,0852-9545-0802,"Office : Jl. Rancabentang Barat 150 RT 05/25, Cibeureum., Cimahi West Java, 40535"
1214,1214,PT. WIRYA KRENINDO PERKASA,cahayabintangengineering@.......com,024 70560728,"ln.Majapahit Ruko Gayamsari No. 21 Gayasari Semarang jawa tengah Indonesia, Semarang Central Java, 50161"
1215,1215,Rumah Kerudung Umi,,021 99947920,"Jl.Garuda 2/33 Inkoppol Jakasampurna, Bekasi West Java, 17145"
1216,1216,PT Mesin Kasir Online,,031 5953333,"51 Jalan Arief Rahman Hakim, Jawa Timur Jawa Timur, 60117"
1217,1217,db7print,zul.lombok2012@.......com,0821-3943-7057,"Jl. Dupak Bandarejo No. 7 Surabaya, Surabaya East Java, 60179"
1218,1218,"Yancheng Hengsheng Insulation Co.,Ltd",info@.......net,,"{ Email: hsinsulation@yahoo.com.cn }, Jakarta Raya Jakarta, 10220"
1219,1219,Pulau Seribu - Travelitatour,info.ptwkp_tractors@.......co.id,0877-4178-1163,"Citra Garden 1 Extension, Jl. Taman Asri 2 No.2, RT.7/RW.15, Kalideres, West Jakarta City, Jakarta 11840, DKI JAKARTA DKI JAKARTA, INDONESIA 11840"
1220,1220,Anugerah Sistema Perkasa PT,tourtravelita@.......com,0622 14606003,"Jl. Raya Bekasi Km24 (Jl. Jagir Wonokromo 100 Surabaya), Ruko Taman Modern Kav. R4/No.01 Jakarta Utara Jakarta, 13960"
1221,1221,PT. Elang Surya Sentosa,pin2@.......com,021 32773021,"Jl.Gorontalo III No.6, Jakarta Jakarta, 14430"
1222,1222,Jilbab Grosir,,0852-3003-6876,"Jl Arjuna II No.6 Triwung Lor, Probolinggo East Java, 67223"
1223,1223,Mount Rinjani Trekking,lomboktrekking@.......com,0370 6686625,"Jl Pemuda No 3, A Gomong Lama Mataram City, 83355"
1224,1224,Bali Sea Cafe,info.hexindo@.......com,0857-3968-5344,"Jalan Pantai Kedonganan, Badung Bali, 80361"
1225,1225,masterjasa,masterjasa@.......com,021 3523410,"suryopranoto 85, jakarta pusat Jakarta, 10160"
1226,1226,12Monkeys Productions,marketing@.......com,021 93393177,"Jl. Kejaksaan No 41B, Jakarta Jakarta, 13430"
1227,1227,Goodtea,becto26@.......com,024 8310787,"Rt 03 / 06, Kelurahan Jomblang Central Java, 50256"
1228,1228,Mustikacare,sales@.......co.id,0812-1819-3477,"DASANA INDAH SS 4 NO 7, TANGERANG, 15821"
1229,1229,Lombok Trekking,landeeflange@.......com,0812-3722-940,"Jl Pemuda No 3, A Gomong Lama Mataram City, 83355"
1230,1230,Bisnispribadi,hsinsulation@.......com,022 76206096,
1231,1231,ANUGERAH SAMUDRA PACIFIC,jilbabkerudung@.......com,021 83706663,"Jl. Tebet Dalam IV No. 11B, Jakarta Selatan Jakarta, 12810"
1232,1232,Top Cycles,store@.......com,0852-7681-4591,"Jl. Duyung Pasar Angkasa 182, Tanjung Uma, Batam Riau, 29432"
1233,1233,Kampung Kerudung,ridwanexim@.......com,021 93663616,"Jl Margasatwa no 25A, Jakarta, 12450"
1234,1234,Ziegra,sales@.......co.id,0623 15677256,
1235,1235,"Telescopic Mobile Cranes, Pick and Carry Cranes, from 3 to 15 ton.",info@.......it,,"RIGANTE - Minicranes, Self Propelled Cranes, Italy made., Jakarta Jakarta, 11160"
1236,1236,Dunia Lampu,reni_fazriyah@.......com,0812-8566-397,"Pinangsia Plaza Lt. 3 No. 26, Jakarta, 11180"
1237,1237,Niaga Computer,perbaikankomputer@.......co.id,021 63851728,
1238,1238,Global Master,menus@.......nl,021 3523410,"jl. suryopranoto no. 85 lt.3, jakarta pusat Jakarta, 10160"
1239,1239,ZENITH ALLMART PRECISINDO,sales@.......biz,0623 18985985,"Jl. Raya Krian-Mojokerto Km. 2,1 No. 168, Sidoarjo East Java, 61263"
1240,1240,service projector jakarta,lomboktrekking@.......com,021 34763200,"Jl Prof. Dr. Satrio, Jakarta Selatan Jakarta, 12930"
1241,1241,Ariwanni,ariwanni@.......centrin.net.id,022 4200066,"Jl Kautamaan Istri 26, Bandung West Java, 40250"
1242,1242,Depo Otomotif,marketing@.......com,021 70900481,"MGK - Mega Kemayoran, Jakarta Pusat Jakarta, 10610"
1243,1243,Mulia Motor,depootomotif@.......com,0838-9898-5553,"Jl. Bandengan Selatan No. 84A/11, Jakarta Utara Jakarta, 11450"
1244,1244,Indonesialiveaboard,cruises@.......com,0623 61774504,
1245,1245,Po_Qyu Collection & Advertising,dunia.lampu@.......com,0898-3332-668,"Rungkut Lor 7 Dalam 4D, Surabaya East Java, 60293"
1246,1246,Achmad,baihaqyilham@.......co.id,022 76800965,
1247,1247,Jalaner Tour & Travel,rezadb7@.......com,021 71339101,"Graha Ardani Jl Warung Silah no 111 Jakarta Selatan, jakarta Jakarta, 12511"
1248,1248,Dutaspace,kampungkerudung@.......com,0361 7481000,"Jl Gunung Kapur No 27, Denpasar BALI, 80119"
1249,1249,Pulisan Jungle Beach Resort,jalaners@.......com,0624 31838185,
1250,1250,Bali Trip Tour,motor.mulia@.......com,0856-3939-696,
1251,1251,tokomap.com,po_qyuads@.......co.id,0813-1122-7732,"jl. way sekampung, kompleks alhidayah pamenagng, pringsewu Lampung, 35373"
1252,1252,Pratama Listrik Kenari,pratamalistrik@.......com,,"Jalan Salemba Raya, Jakarta Pusat Jakarta, 10430"
1253,1253,PT. WIKA KARYA PERSADA,info@.......com,021 49555637,"Jln. Raya Gebang Pulo Gebang Cakung, Jakarta Jakarta, 10150"
1254,1254,Travel 2 Lombok,e_heriyatno@.......com,0370 6686625,"Jl Pemuda No 3, A Gomong Lama Mataram City, 83355"
1255,1255,Lombok Rooms,booking@.......com,0370 692179,"Senggigi Plaza Block A3 No 06, West Lombok, 83355"
1256,1256,Hariom's Tailor & Textile,info@.......com,0622 13457403,"Jln. Pasar Baru Selatan # 1, Jakarta Jakarta, 10710"
1257,1257,Toko Tupperware,harioms@.......net.id,,"Tomang, Jakarta Barat, Jakarta Jakarta, 11410"
1258,1258,Melka Hotel Bali,wiakakaryapersada50@.......com,0623 6241552,
1259,1259,Indonesiaexpedi-tour,ciptadata2@.......com,0622 53804139,"JlRaya Carita Km 12, Sunset view Hotel Banten, 42264"
1260,1260,Bordir Kudus,reservation@.......com,021 82615328,"Villa Asri F/9, Bekasi West Java, 17310"
1261,1261,GNE Cabang Solo Bandung Jayapura Pontianak,iwan.yistya@.......com,0838-6610-4686,"Klodran Indah Barat C.1, Solo Central Java, 57172"
1262,1262,Arttitudes,info@.......com,0622 22507939,"N VISUAL ART ARCHIVE, YOGYAKARTA, 55133"
1263,1263,Dive Trip,global.master@.......com,,
1264,1264,Kasyasindo Megah Perkasa,mumer2510@.......com,021 71225678,"Perkantoran Stadion Lebak Bulus TS IV, Jakarta Selatan Jakarta, 12440"
1265,1265,Qisthi Collection,info@.......com,0817-0300-3040,"Jalan Raya Semolowaru no. 133 baya, Surabaya East Java, 60119"
1266,1266,Gerai Jilbab,info@.......co.id,021 58358629,"Jl Setia no 19 Rt 001/03 Kedoya Selatan, Jakarta Barat Jakarta, 11520"
1267,1267,Gunung Rinjani,info@.......com,0370 692179,"Senggigi Plaza Block A3 No 06, West Lombok, 83355"
1268,1268,Lombok Sunset House,sales@.......com,0370 692179,"Jl Batu Bolong - Senggigi Km 02, West Lombok, 83355"
1269,1269,Melz Event Organizer,lomboktrekking@.......com,0818-0604-1985,"Jl. Pangeran Jayakarta, Jakarta Pusat Jakarta, 10730"
1270,1270,Singapore Airlines,apud.carita@.......com,0624 31874808,"Walanda Maramis No 214, St Manado North Sulawesi, 95122"
1271,1271,ZENITH ALLMART TECHNINDO,info@.......com,0622 16617585,"Jl. Muara Karang Blok. F6 Utara No. 9, Jakarta Jakarta, 14450"
1272,1272,RENTAL ALAT BERAT KONSTRUKSI,my@.......org,024 70560728,"Jln.Majapahit Ruko Gayamsari No. 21 Gayasari Semarang, Semarang Banten, 50161"
1273,1273,Pratama Powerindo,celly@.......com,,"Jl.taman sari raya, jakarta barat Jakarta, 10710"
1274,1274,Indonesia Photography,admin@.......com,0622 22034830,"Jalan Gunung Mas 89, Bandung West Java, 40142"
1275,1275,royal property,pratamapowerindo@.......com,0852-3103-0004,"jemursari 76, Surabaya East Java, 60237"
1276,1276,"The Westin Resort Nusa Dua, Bali",reservations.00035@.......com,0623 61771906,"Kawasan Pariwisata Nusa Dua, BTDC Lot N-3, Denpasar Bali, 80363"
1277,1277,Perkebunan Nusantara Ladang,paketseafood@.......com,0813-3372-6204,
1278,1278,7292A Brass Fasteners Brass Electrical Accessories Brass Moulding Inserts,,,"211,Brinda Street, Bangalore Kalimantan Barat, 56007"
1279,1279,Darmabali,info.ptwkp_tractors@.......co.id,0361 7804380,"Jalan Tukad Badung 98x, Denpasar Bali, 80226"
1280,1280,Brass Electrical Components,info@.......com,0778 457745,"Jodoh Squarte I Blok C 35, Batam Papua, 29432"
1281,1281,Paperglow,info@.......com,0622 19393736,
1282,1282,rumahtoner,firnadb7@.......com,0817-0372-7719,"Jl. Slamet No. 43 Perum PP Legi Indah Waru Sidoarjo, Sidoarjo East Java, 60179"
1283,1283,PELITA WIJAYA,melz.organizer@.......com,031 70909603,
1284,1284,Media Online,pelitawijaya@.......com,,"Surabaya - Indonesia, Surabaya East Java, 60132"
1285,1285,PT. YASA PATRIA PERKASA,darmabali@.......net.id,021 44759957,"Jl. Raya Cakung Cilincing Km, 4/5 Jakarta Utarta, Bekasi Jakarta, 14140"
1286,1286,Elektrical dan Technical Supply,pt.yasapatriaperkasa@.......com,021 29094428,"Cikarang Square blok b 16, Cikarang East Java, 17550"
1287,1287,Pratama Powerindo,,,"jl.taman sari raya, Jakarta barat Jakarta, 10710"
1288,1288,Quanesha,gadingjayajakarta@.......com,0815-5505-989,"Blok BB 46 No 28, Malang East Java, 65143"
1289,1289,Booth.Palembang,,0821-7777-2040,"Jalan Letjen Harun Sohar, South Sumatra South Sumatra, 30961"
1290,1290,Addie&partners,marketing@.......com,0815-6674-422,
1291,1291,Hurricane Indonesia,,021 56947924,
1292,1292,Toko Lis Bordir,kris.onedono@.......com,0813-6314-4161,"Blok C No.136 &amp; Blok H No.11-12 Aur Kuning, Bukittinggi West Sumatra, 26131"
1293,1293,7292A Brass Fasteners Brass Electrical Accessories Brass Moulding Inserts,info@.......com,,"Permata Hijau, Boulevard Barat 75 Jakarta Selatan Jakarta Raya, 12210"
1294,1294,Data Plus,pocket.guide@.......com,021 42802438,"Ruko Mega Grosir Cempaka Mas Blok K No 6, Jakarta Pusat, 10640"
1295,1295,Eco Tours Indonesia,order@.......com,0333 8924246,
1296,1296,Waktu.shop Indonesia,cs@.......com,0813-3453-4570,
1297,1297,Persada Kusuma Wisata,office@.......com,0622 18271409,"Jln PLN No 1 Duren Tiga, Jakarta Jakarta, 12780"
1298,1298,Toko Kain Online,jezohare@.......net.id,0878-3962-8118,
1299,1299,Ecotoursindonesia,info@.......com,0333 8924246,
1300,1300,MITRA BANGUN GRIYO GALVALUM,jilbabgrosirmurahsurabaya@.......com,0815-1566-7992,"Jl. Raya Kedung Wonokerto - Prambon, Mojokerto East Java, 61382"
1301,1301,Warung Jilbab & Accessories,fincollection1@.......com,0857-1626-9053,"Perum Alinda II E7 No. 11, Bekasi Utara West Java, 17125"
1302,1302,PT Perkasa Inti,marketing@.......com,031 8285909,"Jl. Menanggal Indah 8 No 34, Surabaya Jawa Timur, 60234"
1303,1303,PT.WIJAYA MEGAH SARANA,marketing@.......com,0551 216091,"Jln. Yos Sudarso Rt.29 No. 2 Kalimantan Timur 77113 Tarakan, Kalimantan Timur Kalimantan Timur, 77113"
1304,1304,Steel Pipe Fitting Valves Flanges Landee,mbgconstructionsurabaya@.......com,,"walikota mustajab 2, surabaya East Java, 60272"
1305,1305,INDOFILTER 0811-1881234,info@.......com,0811-1881-234,"Komp Ruko Palem Ganda Asri B/A5 No 3, Tangerang Banten, 15157"
1306,1306,"Samudera Anugerah Internusa, PT",ayu@.......com,0852-6446-9988,"Jl. Engku Putri Graha Pena Building 8th floor No. 805 Batam Center, Batam Riau Islands, 29461"
1307,1307,Jual Batu Alam - Cahaya Alam Stone,info@.......com,0813-1695-6069,"Jl.Letda Nasir, No.62 RT01/10 Cikeas Udik BOGOR, Gunung Putri KABUPATEN BOGOR, West Java 16966"
1308,1308,I Bali Tour,promoinfo100@.......com,0361 9080678,"Jalan Raya Teges No. 30 Peliatan, Ubud, Bali, Ubud Bali, 80571"
1309,1309,Hotel Gili Air,marketing@.......com,0623 70643580,
1310,1310,zalfa'_design,ibalitour@.......com,021 91132525,"Jakarta, Jakarta Jakarta, 13720"
1311,1311,Raja Motor,cahbenks@.......com,021 84596707,
1312,1312,Korindo-network,info@.......com,0623 70647327,
1313,1313,Garis Hijau,admin@.......com,0856-2255-378,"Jakarta, Jakarta Jakarta, 14240"
1314,1314,Air,garishijau@.......com,0817-9854-203,
1315,1315,Hartip Simorangkir,,021 32728806,"Lantai 11, Jakarta Jakarta, 10220"
1316,1316,Ayesha Butik Muslim,ayesha.moeslimhouse@.......com,0813-3410-1112,"Jl. Bunga Desember No. 33, Malang East Java, 65141"
1317,1317,Cable Glands Asia,landee@.......cn,,"Taihua Park,, Shijiazhuang Jakarta Raya"
1318,1318,"Park Center Pulomas "" TIFOLIA APARTMENT """,,0813-1679-1888,"Jl. Perintis Kemerdekaan, Jakarta Jakarta, 14130"
1319,1319,Bloomz Flowers,p3t3r_zon3@.......com,0361 2171149,
1320,1320,Java Adventure Indonesia,info.ptwijayamegahsarana@.......com,0623 35430751,
1321,1321,Indonesia Journey,info@.......or.id,021 87716939,
1322,1322,Borneo Discovery Tours,info@.......com,0542 7254677,"Jl Harapan No38 GnSari Ilir, KPAPAN BALI, 76121"
1323,1323,Swiss-Belhotel International,info@.......com,0622 24240000,"Jl Otto Iskandardinata No16, Bandung West Java, 40171"
1324,1324,Cable Glands World Wide,bandung@.......com,,"Jln. Gunung Indah, Cirendeu Jakarta Raya"
1325,1325,Anyer Carita,info@.......com,,20967
1326,1326,A Brass Neutral Links Neutral Bars Brass Neutral Terminal Bars,info@.......com,,"Kedoya Elok Plaza Blok Dc-50, Panjang Jakarta Raya, 11520"
1327,1327,Cable Gland India,,,"Polaris Scientific House Komp, Matraman Raya Jakarta Raya, 13150"
1328,1328,Wisata Melayu,info@.......com,0622 74379250,
1329,1329,Omura Racing,cahaya.alam88@.......com,021 4516722,"Jl. Gading Kirana Timur A 11 no 17, Jakarta Utara Jakarta, 14240"
1330,1330,Jaya Motor Bengkel & Sewa Mobil,sales@.......com,,"Jl Seha no 6 Jakarta Selatan, Jakarta Jakarta, 12220"
1331,1331,PT.Srikandi Diamond Motors Mampang Jakarta Selatan,,,"JL.Mampang prapatan Raya No.21-23.Warung Buncit, Jakarta Selatan West Java, 12790"
1332,1332,Tin And Saung Angklung Udjo,franchise@.......com,,
1333,1333,Isoftwarehouse,ahmad@.......net,021 91725638,"Jl Encep Kartawiria no 62 Cimahi, Bandung West Java, 40512"
1334,1334,Orangutan-tour,marketing@.......com,0813-4979-7705,
1335,1335,Swiss-belhotel International,info@.......com,0622 15606040,"Suite C-06-03 - Plaza Mont' Kiara, Mont' Kiara, 50480"
1336,1336,A Brass Insert Fasteners India,srikandijakarta@.......com,,"JL. GARU II VILLA HARJOSARI INDAH I KAV. 37-37A, Medan North Sumatra, 20147"
1337,1337,Harapan Bangsa,marketing@.......info,0623 41744222,"Jl. Raya Bangil Sukorejo No. 10, Pasuruan East Java, 65153"
1338,1338,Palugada,support@.......net,021 6599331,"Ruko Gatep 19 J, Jakarta Pusat Jakarta, 10730"
1339,1339,Toydistro,sbiid@.......com,0622 18299969,
1340,1340,Indo Lingua Translocalize,exeqzalie@.......com,0628 11174361,"Ruko Cirendeu Residence AA 3-4, Tangerang, 15419"
